Label,Type,Tags,Description,Areas de trabajo,Campos de la nano,Direccion,Provincia,Ciudad,Empresas Incubadas,Image,Linkedin,Productos y/o servicios nano,Region,Servicios,Telefono,email,location,url,web
PUNA BIO S.A.,Empresa,,"En PunaBio trabajamos hoy para el agro del mañana. Queremos producir mejor, contribuyendo a la calidad del ambiente y de las personas que lo habitan, promoviendo una agricultura sustentable.

Bioinsumos del futuro, de fósiles vivientes. Investigamos bacterias que habitaron el planeta desde hace 3500 millones de años para crear el primer bioinoculante extremófilo del mundo. Capaz de mejorar rendimientos consistentemente entre 10-15% en suelos fértiles, y hacer crecer cultivos en suelos degradados.",,,Ayacucho 2009|Vicente López|provincia de Buenos Aires,Buenos Aires,Vicente López,,https://s3.amazonaws.com/cloud.kumu.io/accounts/262898/248108/de16305a-570a-4ec5-8e84-c390fb00d181.jpeg,,,,,,,"-34.523097770230486, -58.49706463557747",,
Nanotransfer,Empresa,,"**Sistema de delivery de genes para terapias génicas**

Estamos desarrollando un sistema de delivery para ser aplicado en terapias génicas in-vivo. El sistema de Nanotransfer se basa en nanopartículas inorgánicas.

Contamos con expertos en nanotecnología, síntesis química y biología molecular lo que nos permite sintetizar, caracterizar y modificar nuestro sistema en función a la interacción con los sistemas biológicos.

La librería de vehículos de Nanotransfer podrá acelerar el desarrollo de terapias génicas a nivel global.",Medicina,,,Córdoba,,,https://s3.amazonaws.com/cloud.kumu.io/accounts/262898/663353/fe13bd36-e73b-4ed9-9aa2-080457e6b401.jpeg,www.linkedin.com/company/nanotransfer,**Nanovehículos para drugs delivery**: estamos desarrollando una librería de vehículos para hacer delivery de genes en terapias génicas. En función del gen y de la célula target se podrá elegir el vehículo adecuado para hacer el delivery.,,,,brian@nanotransfer.bio,"-31.43283254771526, -64.20318324023371",nanotransfer.bio,
ProinPharma Biomed S.A.,Empresa,,Empresa de biotecnología farmacéutica,,,Arregui 4023|ciudad de Buenos Aires,CABA,CABA,,https://s3.amazonaws.com/cloud.kumu.io/accounts/262898/248108/3acfb2ef-05e6-4345-bd4e-a84726cf33dc.jpeg,,,,,,,"-34.612275366458555, -58.49914264254861",,
Aminutric SAS,Empresa,,,,,Parque Industrial|Río Cuarto|provincia de Córdoba,Córdoba,Río Cuarto,,https://s3.amazonaws.com/cloud.kumu.io/accounts/262898/248108/70ab1cd8-8de2-4661-892a-1940045d1a86.jpeg,,,,,,,"-33.144577584987516, -64.3195069424682",,
Laboratorios Química Luar S.R.L.,Empresa,,"El laboratorio argentino Química Luar comienza su actividad en la ciudad de Córdoba en la década del 70, produciendo y comercializando medicamentos oftalmológicos, antimicrobianos, antimicrobianos inhalados y mucolíticos, con el objetivo de contribuir a mejorar la calidad de vida de los pacientes.

Promovemos la investigación y el desarrollo de productos innovadores, atendiendo las inquietudes de la comunidad médica respecto a patologías complejas y poco atendidas, como por ejemplo la Fibrosis Quística. Por esta razón hemos ganado el reconocimiento de los profesionales, manteniendo vigente su participación y su crecimiento en el mercado. A fin de lograrlo, priorizamos la formación de nuestros recursos humanos, con el objetivo de alcanzar la excelencia.

Trabajamos comprometidamente en la búsqueda de soluciones para el tratamiento adecuado de los pacientes, distinguiéndose por su vinculación permanente con organismos de investigación como el CEPROCOR, la Universidad Nacional de Córdoba, el CONICET y otras...",,,Hualfin 359|Córdoba Capital|provincia de Córdoba,Córdoba,Córdoba,,https://s3.amazonaws.com/cloud.kumu.io/accounts/262898/248108/eb6cffac-3821-47d4-ab86-da71a976d28a.jpg,,,,,,,"-31.404872529631913, -64.20586259998977",,
Eureka Nanobioengineering,Empresa,,"Hemos creado una plataforma modular y rentable que permite el autoensamblaje bajo demanda de nanobiomateriales multifuncionales inteligentes.

Actualmente está en marcha el desarrollo de unidades de negocio estratégicas basadas en aplicaciones de vacunología e inmunoingeniería de esta plataforma patentada.",,,Av 25 de Mayo y Francia|San Martín|provincia de Buenos Aires,Buenos Aires,San Martín,,https://s3.amazonaws.com/cloud.kumu.io/accounts/262898/248108/ec00f8e5-8279-4894-bf99-9e12c2f61842.jpeg,,,,,,,"-34.57899986310915, -58.52666445785319",,
Cálice Biotech,Empresa,,"Es un emprendimiento, recientemente incubado en el Espacio de Innovación de la FAN, que tiene como objetivo llevar al mercado plantas de cannabis genéticamente mejoradas para distintos fines.

Cálice se proyecta como una plataforma de biotecnología vegetal enfocada en el mejoramiento genético de cannabis y su modelo de negocios consiste en proveer soluciones a otras compañías y bancos de semillas, en Argentina y el mundo. En el área medicinal busca crear nuevas variedades de cannabis que tengan aplicaciones médicas y que sirvan para tratamientos de pacientes que hoy no encuentran solución utilizando fármacos convencionales.",,,Av. 25 de Mayo 1021|San Martín|provincia de Buenos Aires,Buenos Aires,San Martín,,https://s3.amazonaws.com/cloud.kumu.io/accounts/262898/248108/600c4b80-648a-4797-ad0f-30ab198605c7.png,https://www.linkedin.com/company/calice-ai/,,,,,,"-34.581823857619874, -58.52089158126257",,
BIOA S.A.,Empresa,,,,,San Juan 1273|Villa María|provincia de Córdoba,Córdoba,Villa María,,,,,,,,,"-32.40684917895795, -63.24440421939699",,
Landed Argentina,Empresa,,"LANDED Argentina es una empresa de servicios de consultoría especializada en geología, recursos naturales y minería de minerales industriales.

Nuestro equipo está compuesto por profesionales altamente cualificados con posgrados avanzados y más de veinticinco años de experiencia activa tanto a nivel nacional como internacional. Con sede en la ciudad de San Juan, Argentina, LANDED tiene la capacidad y experiencia para emprender proyectos a escala global.",,,Colón Oeste 5632|Rivadavia|provincia de San Juan,San Juan,Rivadavia,,https://s3.amazonaws.com/cloud.kumu.io/accounts/262898/248108/968cd0e3-ca4b-4f1e-8d13-79da559a11bd.png,,,,,,,"-31.53311314369453, -68.59664132165555",,
Limay Bio S.A.,Empresa,,"Nuestro laboratorio de 200 metros cuadrados en el polo biotecnológico de Buenos Aires está equipado con tecnología de punta. Este espacio está organizado en áreas independientes especializadas y con una distribución adecuada para que sean adecuadas para nuestras investigaciones en biología molecular, ingeniería de proteínas y microfluídica.

Además, contamos con un área de microingeniería y una sección para diseñar, prototipar, desarrollar e imprimir en 3D nuestros dispositivos portátiles.",,,Ayacucho 1239|ciudad de Buenos Aires,CABA,CABA,,https://s3.amazonaws.com/cloud.kumu.io/accounts/262898/248108/6b4ffc76-9c44-4f3c-91cf-4bcee07254ab.jpeg,,,,,,,"-34.5940097414697, -58.39570506441811",,
Unibaio,Empresa,,"En UNIBAIO desarrollamos un ingrediente biodegradable que optimiza la entrega de agroquímicos para disminuir sus dosis de aplicación y niveles de toxicidad.

Las empresas de plaguicidas pueden utilizar las partículas de UNIBAIO para modificar sus formulaciones para:

- ser aprobadas por las normas ambientales más estrictas sin reemplazar los productos químicos que utilizan los agricultores,

- reducir la operación manual, reduciendo los costos de aplicación de los agricultores,

- mejorar el rendimiento y la competitividad.

Nuestras partículas pueden ser utilizadas en cualquier tipo de plaguicidas y fertilizantes, desde los tradicionales químicos hasta los bio/orgánicos. Nuestros nanoportadores están hechos de compuestos naturales como residuos de la pesca de langostinos y arcilla, utilizando un modelo circular.",,,Av. Colón 10850|Mar del Plata|Provincia de Buenos Aires,Buenos Aires,Mar del Plata,,https://s3.amazonaws.com/cloud.kumu.io/accounts/262898/663353/0256fd23-82d1-462c-8213-5e469f7e3b5d.png,https://www.linkedin.com/company/unibaio/,"**Biopolímeros funcionales** para la formulación de agroquímicios y bioinsumos: desarrollamos nano-vehículos basados en compuestos naturales y economía circular para mejorar el rendimiento de los agroinsumos.

Nuestras partículas encapsulan los principios activos de los pesticidas para liberarlos progresivamente en el tiempo. Esto permite aumentar su efectividad y reducir sus dosis de aplicación, por lo tanto, disminuye los niveles de toxicidad en el suelo y los alimentos que consumimos.",,,+56 965 380 007,hello@unibio.us,"-37.96090849151554, -57.634578684590075",https://www.unibaio.com/es,
Grupo Nanotech S.R.L.,Empresa,,"NANOTECH S.R.L es una empresa dedicada a la limpieza industrial, higiene urbana y medio ambiente, que combina limpieza tradicional con tecnología de vanguardia.

Con el uso de maquinaria de ultima generación y personal altamente especializado aseguramos una limpieza ágil y rápida sin pasar por alto ningún detalle, con una correcta desinfección de cada uno de los ambientes laborales.

NANOTECH S.R.L logra un diferencial en sus instalaciones y una nueva imagen a su empresa, buscando la optimizacion de los recursos humanos, económicos y de tiempo.",,,Caamaño 1060|Villa Rosa|provincia de Buenos Aires,Buenos Aires,Villa Rosa,,https://s3.amazonaws.com/cloud.kumu.io/accounts/262898/248108/a54d6ad7-1259-442e-bb4b-a1596e313263.jpeg,https://www.linkedin.com/company/grupo-nanotech/,,,,,,"-34.433549051714955, -58.83062331192616",,
ZURE-Embryotech S.A.S.,Empresa,,"Zure Embryotech es un empresa dedicada a desarrollar tecnologías innovadoras para la embriología clínica.

Fabricación de equipo médico y quirúrgico y de aparatos ortopédicos principalmente electrónicos y/o eléctricos (incluye equipos de laboratorio, esterilizadores, paneles para observación de radiografías, tornos, etc.)",,,Ruta C 45 Km. 1|Malagueño|provincia de Córdoba,Córdoba,Malagueño,,https://s3.amazonaws.com/cloud.kumu.io/accounts/262898/248108/5c8a83c0-611c-4611-95a3-bf40eeefd24c.jpeg,,,,,,,"-31.46085283570392, -64.42487389616134",,
Ecosol,Empresa,Empresas|Empresa,"En el año 2003, Ecosol da inicio a un nuevo sistema de calefacción, saludable y respetuosa del medio ambiente innovadora en Argentina y en el Mundo.
En el año 2012 nos impulsamos hacia el futuro al implementar en nuestros calefactores la tecnología IR + NANO PLATA + TURMALINA.

Tecnología que permite calefaccionar de manera más rápida y eficiente, orientando a calentar directamente los cuerpos sin necesidad de calentar el aire como los viejos sistemas de calefacción. Los cuerpos reciben calor a través de energía eléctrica por efecto Joule y luego emiten un 85% de su calor por Radiación según la ley de Stefan-Boltzmann. Esto permite alcanzar un nivel de excelencia utilizando una cuarta parte del consumo eléctrico en comparación con otros calefactores.
Ecosol se reinventa y por medio de la investigación continua, incorpora nuevas tecnologías de vanguardia y totalmente innovadoras en calefacción.
Cada año logra mayor rendimiento y menor consumo, al incorporar Aluminosilicatos, Iones Negativo y minerales que p...","- Paneles calefactores
- Termotanques solares
- Toalleros calefactores",,"Moreno 3044, (C1209ABF), Ciudad Autónoma de Buenos Aires, Argentina.",CABA,CABA,,https://s3.amazonaws.com/cloud.kumu.io/accounts/263368/248108/058d9648-2844-4cdb-9a18-a5edb111e379.png,,,,,,info@ecosolargentina.com.ar,"-34.61323826196282, -58.408551421948374",www.ecosol.com.ar,
AADEE S.A.,Empresa,Empresas|Empresa,"AADEE SA cuenta con más de 40 años de prestigio y experiencia en el campo de la medicina convencional y especializada, como fabricantes, exportadores e importadores de equipamiento para medicina y alta complejidad, bioquímica, investigación, y protección radiológica.
Fue fundada con el ideal de estar a la vanguardia de la Industria Argentina, prestar nuevos y mejores servicios y quebrar día a día los paradigmas que provocan estancamiento, para lograr el acceso a nuevos grados de conocimiento.
AADEE SA es fabricante de equipos analizadores de gases en sangre y analizadores de electrolitos, instalados en hospitales y clínicas de todo el país y asimismo exportamos a diversos países a través de representantes autorizados.
En el área de medicina, alta complejidad, hematología y terapia respiratoria, así como para investigación, radioprotección e industria, ofrecemos una diversidad de equipos a través de empresas que representamos de forma exclusiva en Argentina, brindando para todas ellas el debido soporte técn...","- Fabricación &Exportación
Nos dedicamos a la fabricación y el desarrollo de equipos de ácido base, fundamentales en terapia intensiva. Contamos con certificaciones ISO9001 y 13485, y nuestros equipos tienen la certificación CE.
Nuestro analizador de pH y gases en sangre modelo µGASES permite, en una muestra de sangre arterial de 80 µl, determinar pH y las presiones parciales de oxígeno y dióxido de carbono.
Nuestro analizador µISE determina valores de Na, K, Cl, y Ca en muestras de sangre u orina.
El soporte técnico especializado es esencial en este tipo de equipos, por eso brindamos servicio preventivo y correctivo.
Contamos también con una división de investigación y desarrollo.

- Medicina (cirugía de alta complejidad, laboratorio clínico, luminoterapia, microbiología, terapia respiratoria, presión arterial, empresas representadas)

- Nuclear
Somos expertos proveedores de una amplia gama de equipamiento para protección radiológica, a través de nuestras representadas exclusivas Thermo Fisher Scientific...",,"Av. Triunvirato 4135 – 5º piso, (C1431FBD) Buenos Aires – Argentina",CABA,CABA,,https://s3.amazonaws.com/cloud.kumu.io/accounts/263368/248108/5a06417f-391d-4043-b3e6-81b4fd8a6ecc.png,,,,,(54-11) 4523-4848 (líneas rotativas),info@aadee.com.ar,"-34.57849233577807, -58.479275202951534",www.aadee.com.ar,
Eriochem S.A.,Empresa,Empresas|Empresa,"Eriochem S.A. es una empresa Argentina, ubicada en Colonia Avellaneda, Departamento Paraná, Entre Ríos, dedicada a la fabricación de medicamentos.
Es una compañía farmacéutica con tres pilares fundamentales: Integración Vertical, la Tecnología como herramienta competitiva y la Globalización de Mercado.

Nuestro objetivo es desarrollar y producir genéricos oncológicos de alta calidad y genéricos con tecnología de valor agregado o supergenéricos.
Parte de nuestra meta es también producir con procesos eficientes, que nos permitan tener precios competitivos.
De esta manera, más doctores y pacientes podrían tener la posibilidad de realizar la mejor elección de tratamiento para cualquier caso.","- Investigación & Desarrollo:

I&D, el alma vital de nuestra organización, consiste en un grupo eficiente de científicos investigadores y doctores que usan la innovación y creatividad para trabajar continuamente en nuevos productos y procesos.

- Propiedad Intelectual:

Las patentes de ERIOCHEM están aprobadas en los países más demandantes del mundo, y los procesos llevados a cabo por nuestro equipo son el testimonio suficiente de la alta competencia, flexibilidad y capacidad innovadora.

- Alianzas estratégicas:

Globalización del mercado. El posicionamiento geográfico estratégico nos permite el acceso a los mercados con mejor demanda y precios competitivos.

- Área Control de Calidad (CC):

CC utiliza el 25% del personal de la Compañía. Se siguen los métodos analíticos requeridos tanto por la Farmacopea de los Estados Unidos (USP) como la Farmacopea Europea (EP), y aplica estándares de calidad establecidos por ambas Farmacopeas. Posee moderno equipamiento operado por personal altamente calificado.
...",,"Ruta 12, km 452, (3107) Colonia Avellaneda, Paraná, Entre Ríos - Argentina",Entre Ríos,Paraná,,https://s3.amazonaws.com/cloud.kumu.io/accounts/263368/248108/305ffa74-c008-486a-8dbd-365edec5618f.png,,,,,+54 343 4979125,info@erio.com.ar,"-31.760982696708975, -60.38991725887965",www.eriochem.com.ar,
Adox,Empresa,Empresas,"ADOX es una compañía argentina eco-innovadora, con presencia internacional, caracterizada por la agilidad e innovación en soluciones. Desarrollamos e implementamos productos, servicios y procesos novedosos, pioneros en el mercado local y orientados a elevar la productividad, cuidando el medio ambiente y promoviendo el desarrollo personal.

Nuestra investigación y desarrollo están enfocadados a la innovación radical e incremental de aplicaciones tecnológicas que permitan mejorar la calidad de vida y del medio ambiente.","**SALUD**
Insumos para la prevención y control de infecciones intrahospitalarias. Insumos y accesorios para el lavado de manos en el sector hospitalario. Equipamientos para anestesia, bombas de infusión y respiradores de anestesia.

**AGROINDUSTRIA**
Desarrollos innovadores para la agroindustria, alimentadora para terneros, cámaras calorimétricas y automatización de plantas de fenotipado. Equipamientos pioneros en Argentina en medición y análisis para el agro enfocados en la ecología y el medio ambiente.

**SECTOR PÚBLICO**
Novedosos desarrollos tecnológicos de automatización para sistemas de alerta, y control ideales para solucionar problemas de seguridad en el ámbito del sector público.

**SECTOR PRIVADO**
Innovadores sistemas de accesibilidad, alerta, control y monitoreo y desarrollos de equipamientos tecnológicos para el control de acceso ideales para solucionar problemas de seguridad en el ámbito del sector privado.",,Cerrito 1225 - (B1714ARE) Ituzaingó - Buenos Aires - Argentina,Buenos Aires,Ituzaingó,,https://s3.amazonaws.com/cloud.kumu.io/accounts/261918/248108/8c5b4679-96db-4d99-a222-534d6ff7e5f6.png,,"**Hybridon AR**
Recubrimiento antimicrobiano post desinfección. Solución de base acrílica formulado con micropartículas nanoestructuradas adsorbidas con iones plata y cobre que actúan como antimicrobiano adhiriéndose a la superﬁcie en donde se las aplica, permitiéndo un efecto prolongado del producto en el tiempo.

**Limpiador de superficies LCS**
Líquido antimicrobiano apto para aplicar en todo tipo de superficies incluso en pantallas táctiles de equipos tecnológicos. Está formulado a base de alcohol isopropílico y nanopartículas de plata, entre otros componentes. Posee efecto de desinfección frente a bacterias Gram positivas y Gram negativas.

**Lubricante de material quirúrgico**
Es un lubricante que contiene nanopartículas de plata como conservante destinado para la lubricación de instrumental quirúrgico.

**Esponjas con nanopartículas**
Desarrollamos esponjas de melamina con partículas de sílice nanoestructuradas agregadas en una formulación gelificada, que ayudan a remover el biofilm de las superfic...",,,,info@adox.com.ar,"-34.63072339661854, -58.697274260619814",http://adox.com.ar/,
Bioinnovo S.A.,Empresa,,"Bioinnovo es una empresa biotecnológica dedicada a la investigación, diseño y desarrollo de anticuerpos IgY, Vacunas Recombinantes y prestación de servicios especializados orientados a la salud animal.

Los productos desarrollado por Bioinnovo están basados en dos plataformas: la tecnología IgY y la plataforma APCH1 patentada que surgió a partir de los trabajos de investigación del grupo fundador y de la empresa Algenex.

Adicionalmente, Bioinnovo presta servicios especializados en su granja experimental para la evaluación de productos destinados al sector avícola.",,,Dr N. Repetto y Los Reseros S/N|Hurlingham|provincia de Buenos Aires,Buenos Aires,Hurlingham,,https://s3.amazonaws.com/cloud.kumu.io/accounts/262898/248108/6513a0c9-58af-4fa5-bcca-5ce0f7d9ab27.png,,,,,,,"-34.61348294882597, -58.655838534215974",,
Innova Space,Empresa,,"Somos prooveedores de la plataforma que revolucionó la tecnología satelital, por tamaño, bajo costo de lanzamiento y prestaciones de servicios.

Somos una empresa dedicada al desarrollo de picosatélites y nanotecnología",,,Chaco 1670|Mar del Plata|provincia de Buenos Aires,Buenos Aires,Mar del Plata,,https://s3.amazonaws.com/cloud.kumu.io/accounts/262898/248108/6a6d3acf-2278-4e2a-ad95-f81b350e1810.jpg,,,,,,,"-37.99015862154388, -57.564695154834226",https://www.innova-space.com/es/,
Dharma BioScience S.A.,Empresa,,"Desarrollo, formulación y vehiculización de un cocktail de miRNAs para el tratamiento de la artrosis de rodilla.

La empresa fue fundada en 2022 y tiene como objetivos el desarrollo de un método de determinación de miRNA en liquido sinovial de pacientes con osteoartritis bajo tratamiento clínico y la evaluación de la relevancia de los miRNAs en la diferenciación de células madre hacia condrocitos.",,,Pasaje Tarrico 840|Rosario|provincia de Santa Fe,Santa Fe,Rosario,,https://s3.amazonaws.com/cloud.kumu.io/accounts/262898/248108/89b9324f-1df1-4fb7-80af-03072162e8d7.jpeg,,,,,,,"-32.94978262994208, -60.66334107843044",,
Kalium Technologies,Empresa,Empresa,"Elaboramos productos para **Biología Molecular** y **Biotecnología**, como **purificación** de **ADN/ARN** y **extracción** de **proteínas**. Hace cuatro años incorporamos nanotecnología para el desarrollo de nuevos productos y hoy contamos con kits validados para purificar ácidos nucleicos con partículas magnéticas, en forma manual y automática. Seguimos trabajando en sumar productos innovadores al mercado local a partir de los logros ya obtenidos.","**Biología Molecular**: provisión de reactivos para purificar ácidos nucleicos por métodos tradicionales (ADN fenol-cloroformo, ARN fenol ácido) y por partículas magnéticas (kit viral para Covid), reactivo para revelar reacciones quimio luminiscentes (tipo ECL) y micropartículas de vidrio para lisis celular.

**Biotecnología**: partículas magnéticas recubiertas con polímero para purificación de proteínas.",,Zeballos 1716|Bernal|Provincia de Buenos Aires,Buenos Aires,Bernal,,https://s3.amazonaws.com/cloud.kumu.io/accounts/262898/663353/4a8bbf7c-f49e-450b-9c29-cf6be6cdd174.png,https://www.linkedin.com/in/kalium-technologies-854b24138/,"**Biocapture NA Viral kit** para extracción y purificación de ácido nucleico viral a partir de hisopados.|**Biocapture NA Bacteria kit** para extracción y purificación de ácidos nucleicos, a partir de células en cultivo o muestras líquidas.|**BioBeads**: nanopartículas magnéticas recubiertas con polímeros para diversas aplicaciones en biotecnología, principalmente unión de proteínas (amine / carboxy chemistry).",,"La empresa provee servicios de investigación y desarrollo de soluciones para biotecnología, utilizando tecnologías separativas basadas en partículas magnéticas.",011 - 4426 7786,technology@kaliumtech.com,Zeballos 1716 Bernal Provincia de Buenos Aires,http://www.kaliumtech.com,
Mirai 3D,Empresa,Ecosistema FAN|Empresas|Empresa|Incubadora,"MIRAI 3D es una empresa de ingeniería biomédica que desarrolla soluciones innovadoras para la salud basadas en la combinación de impresión 3D y materiales avanzados. Nos enfocamos en el desarrollo de simuladores de alto realismo para entrenamiento en cirugía mínimamente invasiva, endoscopia y cirugía plástica.","Planificación Quirúrgica Avanzada: Biomodelos para cirugías de alta complejidad.
Modelos anatómicos para planificación de cirugías oncológicas, pediátricas y cardiovasculares. Obtenga un modelo físico donde analizar y ensayar los procedimientos quirúrgicos previo a la cirugía.
¿Por qué utilizar impresión 3D en medicina?: Facilita el entendimiento y la interacción con el paciente; incrementa la tasa de éxito de las cirugías; reduce significativamente el tiempo quirúrgico; previene errores en la toma de decisiones; genera ahorros para la institución; mejora la precisión y reduce el sangrado; aumenta la seguridad de la cirugía.

Simulación y entrenamiento médico: Hands on + Virtual= Simulación HÍBRIDA Superior.
En Mirai 3D desarrollamos proyectos de simulación quirúrgica híbrida. Combinamos impresión 3D con materiales composites e hidrogeles para crear fantomas de simulación con las mismas propiedades mecánicas que los tejidos del ser humano. Luego, dotamos a estos modelos de un entorno virtual en realidad ...",,Bucarelli 2480|Ciudad de Buenos Aires,CABA,CABA,,https://s3.amazonaws.com/cloud.kumu.io/accounts/261918/248108/6d040137-700f-43d6-b8c7-e8adab1a86ad.jpg,,,,,,,"-34.575099577762956, -58.489353034215185",,
BPANALITYCAL S.A.,Empresa,,,,,Sta. Rita 2183|Las Heras|provincia de Mendoza,Mendoza,Las Heras,,,,,,,,,"-32.814741262327495, -68.80422991977062",,
Vivero Del Oeste Riojano S.A.P.E.M.,Empresa,,"Agrogenética Riojana SAPEM es una sociedad anónima con participación del Estado mayoritaria, la cual cuenta con años de experiencia proporcionando plantas de calidad y asesoramiento al sector agrí­cola de La Rioja.

Tras un largo camino recorrido de trabajo concreto en la región, la empresa se ha consolidado como uno de los viveros proveedores de material vegetal más reconocidos de la zona. Para ello la empresa cuenta con profesionales especializados y personal altamente capacitado, junto a la infraestructura y tecnología necesarias para el desarrollo de cada etapa evolutiva del cultivo.",,,Ruta de la Producción s/n|Anguinán|provincia de La Rioja,La Rioja,Anguinán,,https://s3.amazonaws.com/cloud.kumu.io/accounts/262898/248108/e8b35d15-188d-46d5-a283-599575cc9145.png,,,,,,,"-29.212967396954085, -67.44399770113272",,
Satellogic,Empresa,Empresa,"Satellogic es la primera compañía integrada verticalmente dedicada a la analítica geoespacial, impulsando resultados reales con información confiable a escala global.

Con una constelación de satélites de órbita baja, una plataforma automatizada y el equipo de data science en conjunto, la empresa ofrece soluciones integrales a un costo accesible, transformando imágenes en respuestas concretas para la toma de decisiones diaria.

El equipo de ingenieros en satélites, expertos en inteligencia artificial y especialistas en soluciones trabajan en conjunto con la misión de brindar una mejor imagen del planeta y de las múltiples fuerzas que lo reformulan cada día. Desde el espacio ponen los pies sobre la tierra para ayudar a empresas y gobiernos de distinta envergadura a enfrentar los desafíos más apremiantes, permitiéndoles ver por sí mismos cómo está cambiando nuestro mundo.

Satellogic es una empresa global con oficinas en 6 países (EE.UU., España, Argentina, Uruguay, Israel y China) con un equipo de +200 empl...","Soluciones personalizadas para cada industria:

● Forestación:

Gestionar tierras forestales, activos y asignación de capital.

Prevenir robos y cosechas ilegales.

Definir las existencias y los flujos de carbono para los informes gubernamentales.

Evaluar las variables de la masa forestal.

● Agricultura:

Gestionar tierras y activos agrícolas.

Prevenir robos y cosechas ilegales.

Definir las existencias y los flujos de carbono para los informes gubernamentales.

Monitorear la salud de los cultivos, plagas y malezas.

● Energía: Reducir los costos operativos y mejorar la eficiencia.

Automatizar la gestión de la integridad de los oleoductos.

Prevenir actividades ilícitas.

Cumplir con la normativa medioambiental.

Supervisar la infraestructura y los activos.

● Finanzas y seguros:

Evaluar el impacto y monitorear los desastres naturales.

Acceder a los principales indicadores socioeconómicos para la inteligencia competitiva.",,"Scalabrini Ortiz 3333 3er piso, Ciudad Autónoma de Buenos Aires, Argentina.",CABA,CABA,,https://s3.amazonaws.com/cloud.kumu.io/accounts/263368/248108/a7e29772-73d1-4f9f-a1ee-9d5f13b5aa4d.png,,"En 2013 ""Capitán Beto"", con sus escasos 2 kilos de peso y 20 centímetros de altura, se convirtió en el primer nanosatélite argentino en orbitar la Tierra. Fue un vehículo de prueba y abrió el paso para ""Manolito"".

(los satelites que lanzamos posteriormente, no entran en la categoría de ""Nano"", sino Microsatélites)",,,,info@satellogic.com,"Scalabrini Ortiz 3333 3er piso, Ciudad Autónoma de Buenos Aires, Argentina.",www.satellogic.com,
Smart Drugs,Empresa,,"Siendo investigadores del CONICET (Instituto IMBECU e IHEM CCT Mendoza) y docentes de la Facultad de Ciencias Médicas de la Universidad Nacional de Cuyo, y de la Universidad Católica de Cuyo Sede San Juan, detectamos una fuerte aplicación de la nanotecnología a nivel mundial, y la industria farmacéutica y cosmética no son la excepción.

En el sector farmacéutico, los nanofármacos mejoran la eficacia, llegan al sitio de acción, reducen la dosis y por ende los efectos adversos y tóxicos. En el mundo son desarrollados y comercializados principalmente por industrias farmacéuticas multinacionales las cuales lideran el mercado. En Argentina es un área muy poco explotada y desarrollada.

Mediante nanotecnología utilizamos liposomas u otras nanoestructuras para incorporar por ejemplo Vitamina D3 (colecalciferol) a cremas de uso dermo-cosmético, esto logra que el principio activo sea más estable y resistente, además de lograr la penetración en el lugar preciso, bajando la dosis y por consiguiente los efectos adver...","Farmacia y bioquímica, Cosmética",,Av. Ruiz Leal s/n - Parque Gral. San Martín|ciudad de Mendoza,Mendoza,Mendoza,,https://s3.amazonaws.com/cloud.kumu.io/accounts/262898/663353/d385eae6-3478-4e8f-9bad-6a180ac9554d.png,,,CUYO,,0261 15 3139 999,wmanucha@mendoza-conicet.gob.ar,Av. Ruiz Leal s/n - Parque Gral. San Martín ciudad de Mendoza,,
San Miguel Global,Empresa,,"Somos los únicos procesadores de limón con una plataforma multi-origen que nos permite especializar nuestra oferta en función de lo que demanda cada mercado. Nuestro sistema de trazabilidad ofrece información precisa al cliente sobre el origen y proceso de cada producto, proporcionando un control total desde la semilla hasta el lineal. Capacidad para adaptar nuestra oferta. Mitigación de riesgos. Acceso a nuevos mercados.",,,Ruta 301 kilómetro 33|Famaillá|provincia de Tucumán,Tucumán,Famaillá,,https://s3.amazonaws.com/cloud.kumu.io/accounts/262898/248108/7ef226b2-c0b5-4434-aaca-2ae68af88d49.png,,,,,,,"-27.02485454511094, -65.38571454248842",,
Witmo Technologies,Empresa,,"En Witmo nos apasiona crear soluciones innovadoras que mejoren la vida cotidiana. Nos dedicamos a desarrollar productos y servicios sorprendentes.

Desde 2019 crecemos junto a nuestra incubadora, Luz Consulting, en la ciudad de La Plata. Nuestro proyecto de etiquetas para la cadena de frío fue premiado en el IAE en Naves 2008 y fue seleccionado por IncuBAte 2022 y por Acelera BA 2023, del Programa Invest BA de la Ciudad Autónoma de Buenos Aires.

Nuestro sueño se está haciendo realidad, gracias a este genial equipo interdisciplinario y a la ayuda de muchos profesionales del ecosistema emprendedor.

En la actualidad somos 4 profesionales orientados al diseño, y a varias ramas de la ingeniería, y más de veinte que nos asisten desde la incubadora.",,,Calle 48 989|La Plata|provincia de Buenos Aires,Buenos Aires,La Plata,,https://s3.amazonaws.com/cloud.kumu.io/accounts/262898/248108/62f065c2-03c7-4cb0-8928-f26f0583c8da.jpeg,,,,,,,"-34.92088387202341, -57.959245896618825",,
Vetkiosk S.A.S.,Empresa,,"Vetkiosk es un dispositivo inteligente capaz de suministrar un plan nutricional basado en los requerimientos de cada animal. El productor podrá seguir de forma remota el consumo de cada uno de sus animales, su estado corporal, y evolución del peso. Se paga por la cantidad de animales que se alimentaron, sin necesidad de invertir en la compra del dispositivo. Funciona con un chip en la oreja de cada animal y una cámara especial que registra su estado corporal. Diseñamos una tecnología basada en algoritmos de alimentación, capaces de lograr el suministro adecuado para cada animal.",,,Sobremonte 80|Río Cuarto|provincia de Córdoba,Córdoba,Río Cuarto,,https://s3.amazonaws.com/cloud.kumu.io/accounts/262898/248108/ada23544-5b62-41b6-92df-8ebbce856e47.jpeg,,,,,,,"-33.117908145859836, -64.34630965690262",,
Berardo Agropecuaria SRL,Empresa,,"Somos Berardo Agropecuaria, una empresa familiar, líder en el rubro agrícola en la provincia de Entre Ríos, con sede en la ciudad de Urdinarrain. Las bases de nuestro trabajo son el conocimiento, la innovación permanente, la confianza y las buenas prácticas, llevadas adelante en los rubros agrícola, ganadero y comercial.",,,Presbitero Joannas 348|Urdinarrain|provincia de Entre Ríos,Entre Ríos,Urdinarrain,,https://s3.amazonaws.com/cloud.kumu.io/accounts/262898/248108/ad135aa9-3d89-48a3-868c-01cf102a1080.jpg,,,,,,,"-32.40992478724292, -58.89493894455388",,
Terragene S.A.,Empresa,,"Somos un proveedor líder en prevención de infecciones. Desde 2006, ofrecemos y suministramos soluciones completas como indicadores biológicos y químicos a 70 países. Crear un futuro mejor significa estar a la vanguardia de las cuestiones más apremiantes. El tiempo y la precisión son nuestros puntos fuertes. ¡Te mueves más rápido y actúas mejor cuando estás seguro!

Nuestra misión es mejorar la calidad de vida de las personas a través de la innovación constante en tecnologías aplicadas al campo de la prevención y el control de infecciones. Desarrollamos soluciones para una vida mejor y un mundo mejor.",,,Ruta Nacional N° 9 Km 280|Alvear|provincia de Santa Fe,Santa Fe,Alvear,,https://s3.amazonaws.com/cloud.kumu.io/accounts/262898/248108/3b765252-a5cd-4f52-9143-2137f5c8bd4d.png,,,,,,,"-33.07091808219034, -60.64582097096711",,
MACOMA Environmental Technologies,Empresa,,"MACOMA Environmental Technologies ha creado una solución simple y práctica mediante la utilización de principios científicos fundamentales para producir tecnologías fotocatalíticas y de reflectancia solar para mitigar la contaminación del aire, las islas de calor urbanas y el calentamiento global.

MACOMA Cool Roof, una nano pintura ecológica de reflectancia solar, reduce la temperatura del techo, las facturas de energía al disminuir las necesidades de aire acondicionado y las islas de calor urbanas.

Cien metros cuadrados de techo tratado con MACOMA Cool Roof compensan 28 toneladas de Dióxido de Carbono.

MACOMA Environmental Technologies nació con el compromiso de proteger la salud humana mediante la reducción de la contaminación del aire, los gases de efecto invernadero y el calentamiento global",,,Parque Industrial y de la Innovación|Calle 62 y 239|Posadas|provincia de Misiones,Misiones,Posadas,,https://s3.amazonaws.com/cloud.kumu.io/accounts/262898/248108/e4f3cfa9-609c-4dc9-8540-ced297f62566.jpeg,,,,,,,"-27.36839712846781, -55.99266370891517",,
AlimenSur,Empresa,,,,,Montes de Oca 203|Avellaneda|provincia de Buenos Aires,Buenos Aires,Avellaneda,,https://s3.amazonaws.com/cloud.kumu.io/accounts/262898/248108/ca5ee939-ce37-4ecd-a300-4b5b68377f85.jpg,,,,,,,"-34.65493604086663, -58.366581883485324",,
Nanosoluciones S.R.L.,Empresa,,"Desarrollamos productos nanotecnológicos para la prevención de enfermedades humanas y animales. Nuestros productos son amigables con el medio ambiente, no producen contaminaciones, son ecológicos y pueden utilizarse en áreas como la medicina, cosmética, alimentos y agropecuarias. Nos especializamos en nanopartículas plata, cobre y oro.",,,Almirante Brown 21|Leandro N. Alem|provincia de Misiones,Misiones,L. N. Alem,,https://s3.amazonaws.com/cloud.kumu.io/accounts/262898/248108/ec3de0c3-d611-42a2-ab84-75a87cf8e07c.png,,,,,,,"-27.59689675008916, -55.325723784005426",,
Panarum S.A.S.,Empresa,Empresas|Empresa,Somos una compañía de tecnología farmacéutica. Proteoral® es hoy nuestro principal producto y es el único dispositivo universal de transporte oral de proteínas terapéuticas 100% protegidas de los fluidos gastrointestinales y totalmente absorbidas al torrente sanguíneo con su actividad biológica intacta.,"**Tecnología , ciencia y salud **


Proteoral® es un producto de excelente calidad, inocuo aplicado en terapias con polipéptidos orales. Proteoral® en el mercado beneficia millones de vidas en todo el mundo.

Las áreas terapéuticas que abarca Proteoral son:

Gonadotrofinas orales: estimulan el crecimiento folicular, la ovulación, el embarazo y el nacimiento vivo y se utilizan con frecuencia en la tecnología de reproducción asistida (ART)

Insulina oral.

Anticuerpos Monoclonales orales.",,Av. Independencia 3150 C1225|Ciudad Autónoma de Buenos Aires,CABA,CABA,,https://s3.amazonaws.com/cloud.kumu.io/accounts/262898/663353/b3aa11fe-0a7a-409e-8439-1bc283f0614a.jpg,,,,,,info@panarum.com,Av. Independencia 3150 C1225 Ciudad Autónoma de Buenos Aires,https://panarum.com/,
Nanox Release Technology S.A.,Empresa,,"Nanox es una empresa de nanobiotecnología que se dedica constantemente a la investigación y el desarrollo de descubrimientos, pruebas y comercialización avanzados de fármacos nanofarmacéuticos. La empresa ha desarrollado y especializado en liposomas convencionales, liposomas pegilados y microesferas de depósito con formulaciones de PLGA (copolímeros de polilactida - poliglicólido). Estas tecnologías son aplicables a fármacos, moléculas pequeñas, péptidos y proteínas. Las actividades actuales de Nanox se han centrado en el desarrollo clínico de nanopartículas dirigidas a medicamentos en tejidos específicos con la promesa de un tratamiento progresivo y opciones terapéuticas innovadoras con alta eficacia y menos efectos secundarios para pacientes con grandes necesidades médicas no cubiertas. Como empresa de nanotecnología totalmente integrada, Nanox ofrece soluciones nanotecnológicas innovadoras, tanto en descubrimiento como en desarrollo.

El negocio principal de la compañía se centra en el desarrollo e inno...",,,Tres Arroyos 329|Morón|provincia de Buenos Aires,Buenos Aires,Morón,,https://s3.amazonaws.com/cloud.kumu.io/accounts/262898/248108/779ebfc1-9262-418e-b6cc-7f14e36cc0f7.png,,,,,,,"-34.641539116006875, -58.606768147503196",,
PILL.AR S.A.,Empresa,,Somos una startup que mejora la calidad de vida de las personas a través de la personalización de medicamentos,,,Av. Haya de la Torre S/N|Córdoba Capital|provincia de Córdoba,Córdoba,Córdoba,,https://s3.amazonaws.com/cloud.kumu.io/accounts/262898/248108/a0ffeb20-7b08-46bd-b2bd-d2b93a79d872.jpeg,,,,,,,"-31.43650178114214, -64.19403636804653",,
ERISEA S.A.,Empresa,,"Nuestro propósito es potenciar la salud humana mediante la ciencia y la biotecnología, creando antioxidantes marinos únicos, naturales y sustentables.

Desde Promarine desarrollamos -a partir de las huevas de erizo de mar no fecundadas- poderosas formulaciones antioxidantes para la industria alimenticia, logrando una excepcional biodisponibilidad de los antioxidantes y protectores inmunológicos presentes en el erizo de mar.",,,Nino Incorvay 976|Puerto Madryn|provincia de Chubut,Chubut,Puerto Madryn,,https://s3.amazonaws.com/cloud.kumu.io/accounts/262898/248108/5c651f41-1f7b-4ed3-aaed-db26b1eda6c0.jpeg,,,,,,,"-42.721535769236844, -65.03478158333984",https://promarineantioxidants.com/,
Myceliar S.A.S.,Empresa,,Investigación y desarrollo experimental en el campo de las ciencias exactas y naturales,,,Maipú 1919|Rosario|provincia de Santa Fe,Santa Fe,Rosario,,,,,,,,,"-32.96025227102321, -60.63872385087469",,
TECSCI S.A.S.,Empresa,,"Equipamiento científico de fuentes abiertas para investigación, industria y educación.",,,Av. Rodríguez Peña 2711|San Martín|provincia de Buenos Aires,Buenos Aires,San Martín,,https://s3.amazonaws.com/cloud.kumu.io/accounts/262898/248108/f31d8f2c-441b-4bb1-95b9-cb696a2aed21.jpeg,,,,,,,"-34.58209582553124, -58.51770397120767",,
Laboratorio ELEA Phoenix S.A.,Empresa,Empresas,"En Elea llevamos más de 80 años desarrollando productos, medicamentos y tratamientos para todas las especialidades médicas. Toda una vida acompañando la tuya.
Nuestra misión es impulsar la innovación permanente en el desarrollo de medicamentos de avanzada y tratamientos que eleven la calidad de vida de las personas, desde Argentina, hacia el mundo.
Nuestra visión es ser el laboratorio más presente en los hogares, comprometidos con todas las etapas de la vida de cada persona.","- Productos:
En Elea desarrollamos productos y medicamentos para todas las especialidades médicas y así poder acompañarte en todas las etapas de tu vida. Estamos presentes en cada especialidad médica, avalados por estándares internacionales de calidad y seguridad.
° Venta libre
° Cuidados primarios
° Tratamientos especiales
° Negocios globales

- Investigación:
Llevamos más de 80 años investigando y desarrollando nuevas fórmulas; siempre desafiando lo existente. Repensamos el presente para mejorar el futuro, cuidando la salud y brindando un mejor acceso.

- I+D:
Investigación y Desarrollo fue, desde nuestros comienzos, un pilar de crecimiento y fuente de identidad. Desde hace décadas el Laboratorio Elea ha priorizado los desarrollos de soluciones de alto impacto bajo modelos de asociación Público Privada, este modelo nos ha permitido asociarnos con diferentes centros de excelencia en Investigación.

- Nuestra planta:
Contamos con una de las plantas productivas más nuevas y modernas de Argentina. En nue...",,"Gral. Juan Gregorio Lemos 2809 - B1613AUE, Los Polvorines, Buenos Aires, Argentina.",Buenos Aires,Los Polvorines,,https://s3.amazonaws.com/cloud.kumu.io/accounts/263368/248108/9474a6c7-fa05-4d82-93f0-584bf4cd3888.png,,,,,(+54 11) 4489-8300 / 0800.333.3532,info@elea.com,"-34.522018380242024, -58.67978897861791",www.elea.com,
LOGROS S.A.,Empresa,,"Fundada por el Dr. Juan Carlos Grimaldi, cuya experiencia de más de 40 años ha posibilitado que la empresa se haya instaurado como líder en la industria frigorífica argentina. La planta, ubicada en Río Segundo (Córdoba), está a la vanguardia de la Industria Nacional e Internacional puesto que satisface los más altos estándares internacionales de calidad, tanto por su alto equipamiento industrial como por los excelentes Recursos Humanos que son seleccionados rigurosamente.",,,Camino San José S/N|Río Segundo|provincia de Córdoba,Córdoba,Río Segundo,,https://s3.amazonaws.com/cloud.kumu.io/accounts/262898/248108/2d967270-4392-48d6-a11c-7fcf26ef4e25.png,,,,,,,"-31.66167002866351, -63.8864599313461",,
Hybridon,Empresa,Empresas|Empresa,"Hybridon es un emprendimiento patrocinado por UNSAM, ADOX y CONICET, que tiene como objetivo desarrollar productos y tecnologías para prevenir contaminaciones e infecciones en diferentes sectores.
Con nuestro modelo de negocios B2B, tenemos como misión ayudar a nuestros clientes a incorporar nanotecnología a sus productos en sectores como: insumos de desinfección, textil, packaging y recubrimientos de alta performance.","Efecto antimicrobiano de iones metálicos. Acción residual. Protección antimicrobiana por tiempos prolongados.
Nanopartículas metálicas, nanopartículas y micropartículas de óxidos metálicos densas y porosas, materiales híbridos inorgánicos y orgánicos, micropartículas nanoporosas como carriers de nanopartículas e iones metálicos, recubrimientos antimicrobianos multisuperficies removibles y permanentes.",,Cerrito 1225 - (B1714ARE) Ituzaingó - Buenos Aires - Argentina,Buenos Aires,Ituzaingó,,https://s3.amazonaws.com/cloud.kumu.io/accounts/263368/248108/f8cd359c-628c-4930-b859-e98e63bc6bb4.png,,"**Micropartículas nanoporosas:** Estas micropartículas están compuestas por óxidos inertes y presentan la capacidad de adsorber en sus nanoporos iones metálicos de conocida actividad antimicrobiana y liberarlos de manera sostenida en el tiempo.

**Recubrimiento antimicrobiano post desinfección:** Este desarrollo se realizó en forma conjunta con nuestro primer cliente y partner, la empresa ADOX S.A. Es una dispersión liquida aplicable por spray, que contienen micropartículas nanoestructuradas adsorbidas con iones metálicos; un agente formador de film y un solvente. Al aplicarse en superficies y luego de evaporarse el solvente genera una película que retiene a las micropartículas en la superficie. Estas micropartículas liberan sostenidamente iones antimicrobianos, que evitan la proliferación de microorganismos en las superficies tratadas.

**Nanobact:** Los miembros de nuestro board de consultores científicos desarrollaron un producto líquido, que permite generar recubrimientos cerámicos permanentes nanoes...",,,(54 11) 3032-0001,infohybridon@gmail.com,Cerrito 1225 - (B1714ARE) Ituzaingó - Buenos Aires - Argentina,http://hybridon.com.ar/,
Ingeniería Clínica,Empresa,,"Somos una empresa con más de 28 años de experiencia en el sector clínico/diagnóstico nacional e internacional.

Buscamos contribuir al buen funcionamiento de los laboratorios brindando todo lo necesario para que éstos puedan dar un diagnóstico preciso en todo momento y tomar decisiones que mejoren el cuidado del paciente. Ofrecemos asesoramiento, equipamiento, insumos, soporte técnico, bioquímico y de IT bajo altos estándares de calidad.",,,Beruti 113|Campana|provincia de Buenos Aires,Buenos Aires,Campana,,https://s3.amazonaws.com/cloud.kumu.io/accounts/262898/248108/3f526332-ff32-4cea-96dd-a36f2cabdd0e.png,,,,,,,"-34.15830522879342, -58.96465245918558",,
Carl Zeiss,Empresa,Empresas|Empresa,"ZEISS contribuye desde hace más de 160 años al progreso tecnológico mundial con soluciones para las industrias de semiconductores, automovilística y de ingeniería mecánica, para la investigación biomédica, la tecnología médica así como para cristales de gafas, objetivos para fotografía y cine, prismáticos y planetarios.
La empresa surgió a partir de un taller de óptica y mecánica de precisión creado por su fundador Carl Zeiss en la ciudad de Jena, en el este de Alemania, en 1846. En la actualidad, la sede central de Carl Zeiss se encuentra en Oberkochen en el sudoeste de Alemania.
El grupo ZEISS se compone de seis grupos de negocio y varias unidades estratégicas de negocio divididas en cuatro áreas. Las unidades desarrollan, producen y distribuyen sistemas ópticos como, por ejemplo, sistemas de litografía, metrología industrial, microscopios, microscopios quirúrgicos, sistemas oftalmológicos de diagnóstico y terapéuticos, lentes oftálmicas, tecnología para planetarios, objetivos para fotografía y cine, así...","Cuatro segmentos que dan forma al progreso tecnológico:

- Semiconductor Manufacturing Technology:

Una gran proporción de todos los microchips del mundo se producen con tecnologías ópticas de ZEISS. Como líder tecnológico en el campo de equipos de fabricación de semiconductores, ZEISS hace posible la producción de microchips cada vez más potentes, eficientes energéticamente y económicos y juega, por tanto, un papel clave en la era de la microelectrónica. ● Tecnología de Semiconductores

- Research & Quality Technology:

ZEISS garantiza la calidad óptima cuando se requiere la máxima precisión: con máquinas de medición por coordenadas, software de metrología y microscopios para ciencia, investigación e inspección de materiales. ZEISS colabora garantizando que se puedan visualizar incluso las estructuras y procesos más diminutos. ● Espectroscopia. ● Metrología Industrial. ● Microscopio, software de imágenes y cámaras para microscopios. ● Servicios de desarrollo y producción.

- Medical Technology:

Con s...",,,,,,https://s3.amazonaws.com/cloud.kumu.io/accounts/261918/663353/191cde9d-5496-4059-8d49-e025f9e2b360.png,,,,,,,"-34.606300559587815, -58.38874132199266",https://www.zeiss.com.ar/corporate/contacto.html,
Trebe Biotech SRL,Empresa,,"Trebe Biotech es una startup biotecnológica centrada en el desarrollo y producción de proteínas recombinantes de alta calidad. Nuestra estrategia, basada en el uso de larvas de lepidópteros en lugar de células, aumenta la productividad y escalabilidad del sistema, reduciendo significativamente los costes de producción.

Este sistema permite altos niveles de expresión de proteínas con glicosilación y modificaciones postraduccionales, ofreciendo una alternativa de menor costo a los sistemas basados ​​en células de mamíferos sin comprometer la calidad general de las proteínas recombinantes.",,,Ruta 8 km 225.5|Pergamino|provincia de Buenos Aires,Buenos Aires,Pergamino,,https://s3.amazonaws.com/cloud.kumu.io/accounts/262898/248108/9d10c952-1e16-4c6c-bfe4-f622a3ae042a.jpeg,,,,,,,"-33.91408602620818, -60.574244311483284",,
Mycotech S.A.,Empresa,,"Ofrecemos soluciones biológicas que restablecen la salud integral de plantas y cultivos mediante un proceso natural de estimulación, nutrición y control de patógenos.

Nuestros productos son pensados y elaborados para que puedan utilizarse desde jardines hogareños y pequeñas huertas hasta actividades productivas de mediana y gran escala.

En Mycotech® trabajamos junto al sector científico y productivo mediante un intercambio permanente que promueve la investigación, desarrollo e innovación (I+D+I) de nuevas herramientas biológicas.

Buscamos que nuestras acciones se realicen logrando un equilibrio que pueda garantizar el bienestar socioeconómico de nuestra comunidad en armonía con los recursos naturales.",,,Arenales 1645 Piso 7|ciudad de Buenos Aires,CABA,CABA,,https://s3.amazonaws.com/cloud.kumu.io/accounts/262898/248108/ddbe3362-68a6-486a-88a3-8bd93d8260bc.png,,,,,,,"-34.5942068707959, -58.3907705123826",,
Bio-Optic S.R.L.,Empresa,Empresas|Empresa,"Bio-Optic fue fundada a comienzos de 1997 con el objetivo de crear una Compañía especializada en el área de la Microscopía, Análisis de imagen y Criminalística.

Bio-Optic actualmente comercializa productos indispensables para estas áreas, como ser Microscopios Ópticos (Biológicos, Metalográficos, de Polarización, Invertidos), Microscopios Estereoscópicos, Microscopios Confocales, Refractómetros (Manuales, de Mesa, Abbe, Peltier), Sistemas de Microdisección, Ultramicrótomos, Cámaras Digitales y Software para Análisis de Imagen, Comparadores Balísticos y Sistemas de Documentología. Además ofrece asesoramiento, entrenamiento y servicio técnico.

Bio-Optic tiene como objetivo principal dar soluciones a sus clientes a través de Leica, el primer proveedor integral a nivel mundial de equipos para el área de Microscopía e Imágenes y con Compañías de primer nivel en el área de criminalística, refractometría y software de análisis. Brindando calidad, innovación y tecnología de última generación.","- Criminalística
- Ciencias de la vida
- Industria
- Clínica
- Educación
- Análisis Seminal
- Microscopía digital
- Microscopía confocal
- Sistemas especiales
- Preparación de muestras M.E.
- Sistema de imágenes
- Iluminación",,,,,,https://s3.amazonaws.com/cloud.kumu.io/accounts/263368/248108/81e8ec99-c4d5-414c-8d0c-318ef8893898.jpg,,"- Ultramicrótomos y Crío-ultramicrótomos
- Procesadores de muestras para Microscopía Electrónica por microondas
- Equipo para Microscopía de Fuerza Atómica
- Equipo para Tomografía Matricial
- Recubridores de alto vacío
- Sistemas de Crío-fracturas
- Secadoras de Punto Crítico
- Congeladores por inmersión automática
- Sistemas Thunder Cryo Clem (Microscopía de Correlación)
- Microscopios Confocales STELLARIS para Investigación
- Microscopios Confocales con interferometría para resolución vertical de 0,1 nm
- Microscopios para el procesamientos de obleas semiconductoras
- Microscopios Digitales para visualización 3D
- Sistema de análisis microestructural a través de Espectroscopía Láser
- Microscopía Confocal Raman",,"BIO-OPTIC además de ofrecer productos de alta calidad y última generación brinda un servicio de PRE y POST–VENTA integral para asegurarles a nuestros clientes en todo el país un servicio completo:
- Asesoramiento al momento de la compra.
- Mantenimiento de Equipos
- Reparación de Equipos
- Capacitación y asesoramiento tanto para la utilización de microscopios u otros equipos como para la utilización de Software.
- Tutoriales para facilitar el manejo de los Software o Programas de análisis de imágenes.",(54-11) 4791-9923 / (54-11) 5435-0175 / (54-11) 5435-0176,info@bio-optic.com,"-34.52840535627153, -58.501145274245864",www.bio-optic.com,
Nanotek,Empresa,Empresa|Incubadora,"Empresa líder en Nanotecnología aplicada, fundada el año 2006, con el objetivo de desarrollar tecnología de vanguardia en la Argentina destinada a mejorar la calidad de vida de las personas.
La nanotecnología se presenta como una alternativa para incorporar valor agregado a procesos y productos ya existentes, como así también a crear otros nuevos, incorporando características innovadoras.
El objetivo de Nanotek es propiciar y fomentar el desarrollo de una industria que incorpora los adelantos tecnológicos que ofrece la nanotecnología.
El desarrollo continuo los llevó a registrar las siguientes marcas de productos y procesos Nanotecnológicos propios:
-Soiltek ES
-Soiltek AP
-Soiltek CC
-Soiltek SA
-NanoAsepsis
-Klima Asepsis
-NanArgen
-NanoFe
-NanoKupro
-NanoOxZn",,,"78, Dardo Rocha, B1641CJB Acassuso, Provincia de Buenos Aires",Buenos Aires,Acassuso,,https://s3.amazonaws.com/cloud.kumu.io/accounts/261918/248108/603667ac-748b-4c6f-af17-923526f494d0.png,,,,"- Perfumería & Cosmética
- Pintura
- Mascotas
- Vial & Construcción",8007776266,,"-34.48093683837924, -58.50802890110928",,
Tenaris S.A.,Empresa,Empresas|Empresa,"Somos el fabricante líder de tubos y servicios relacionados para la industria de la energía del mundo y otras aplicaciones industriales. Nuestro sistema de fabricación abarca los procesos de fabricación del acero, laminado y conformado de tubos, tratamiento térmico, roscado y acabado en 16 países. También contamos con una red de I+D centrada en la mejora de nuestra cartera de productos y nuestros procesos de producción. Nuestro equipo, con base en más de 30 países de todo el mundo, está unido por la pasión y por la excelencia en todo lo que hacemos.
A través de nuestra red global integrada de instalaciones de fabricación de tubos con y sin costura, centros de servicios y centros de I+D, trabajamos con los clientes para satisfacer sus necesidades, manteniendo los más altos estándares de seguridad, calidad y desempeño.
Nuestras soluciones digitales innovadoras optimizan los procesos y aumentan la eficiencia, la seguridad y la confiabilidad en las operaciones de los clientes a través de la integración digital.",,,,,,,https://s3.amazonaws.com/cloud.kumu.io/accounts/263368/248108/9f30fb7e-97ea-4bc6-8dd9-9a0409381cee.jpg,,,,"- OCTG:
Combinamos tecnología innovadora, calidad de productos confiables y un servicio eficiente. Nuestras conexiones TenarisHydril Wedge y Blue® ofrecen una gama inigualable de productos para satisfacer las necesidades de las operaciones de perforación y completación en todas las aplicaciones. La tecnología Dopeless® es un revestimiento que se aplica a nivel industrial y simplifica la manipulación y la bajada de los tubos a la vez que minimiza la huella ambiental. En Tenaris, la innovación va más allá de la tecnología del producto: estamos transformando la cadena de suministro de productos tubulares a través de nuestra plataforma de servicios Rig Direct®. Todo esto manteniendo los más altos estándares de QHSE bajo un único sistema.

- Rig Direct®:
A través del servicio Rig Direct®, trabajamos en equipo con los clientes de la industria del petróleo y gas a lo largo de sus proyectos de perforación. El servicio comienza con la planificación del pozo, donde nuestros expertos técnicos optimizan la selecció...",,,"-34.595292605459036, -58.37191661657194",https://www.tenaris.com/es,
Ceres Demeter S.A.,Empresa,,"Nos especializamos en el desarrollo de nuevas tecnologías microbiológicas y su transferencia hacia el sector agroindustrial.

Desarrollamos nuevos conceptos microbiológicos mediante alianzas estratégicas con instituciones científicas, y empresas enfocadas en la comercialización de bioinsumos.

Somos el nexo entre la ciencia y el sector productivo.",,,RN A005|Río Cuarto|provincia de Córdoba,Córdoba,Río Cuarto,,https://s3.amazonaws.com/cloud.kumu.io/accounts/262898/248108/4ae8c6d5-cd06-4f83-b093-27618b154be0.jpeg,https://www.linkedin.com/company/ceresdemeter/,,,,,,"-33.09617682242672, -64.36750150389014",http://www.ceresdemeter.com.ar,
LiZys,Empresa,Empresas|Empresa,"LiZys S.A. fue fundada en la ciudad de San Carlos de Bariloche (Río Negro – Argentina) en el año de 2015 con capitales privados. Con fuerte énfasis en la investigación y el desarrollo, LiZys se centra en la fabricación y distribución de materiales y procesos nanotecnológicos para todo el mundo. Nuestro principal conocimiento y experiencia se enfoca en nanopartículas magnéticas y en nanomateriales magnéticos compuestos desarrollados para para distintas aplicaciones, que van desde desarrollos biomédicos (kits de diagnóstico, separación de moléculas) a remediación ambiental.",,,Luan Sur 256|San Carlos de Bariloche|provincia de Río Negro,Río Negro,Bariloche,,https://s3.amazonaws.com/cloud.kumu.io/accounts/261918/248108/d6ee1f35-4d79-4a4a-85b2-926f8a276646.png,,,,,"5,42942E+13",info@lizys.com.ar,"-41.10801528105761, -71.44199390678793",http://lizys.com.ar/,
Rasa,Empresa,Empresas|Empresa,"La empresa Indumentaria Protectiva RASA S.A. nació en 1991 como fabricante de trajes de bomberos hechos de tela. Frente a la nueva demanda de trajes de tela, la familia fundó RASA y realizó ingeniería inversa sobre productos provenientes de los EEUU: comenzaron por la producción, adaptando tecnologías ya disponibles en el mercado, para luego pasar a la investigación y el desarrollo. Actualmente RASA es uno de los 19 fabricantes de trajes de bombero de tela a nivel mundial que cuentan con una certificación internacional (National Fire Protection Association - NFPA).
Su desarrollo innovador comenzó en marzo del año 2017. Se trata de una innovación de producto, una tela modificada para trajes de bombero que permite reducir significativamente su peso manteniendo las propiedades de protección térmica. La tela para trajes de bomberos consta de capas de diversos materiales, cada una de las cuales cumple un objetivo específico como resistencia mecánica, aislación térmica y protección química.",,,Ruta 2 Km 118|Chascomús|provincia de Buenos Aires,Buenos Aires,Chascomús,,https://s3.amazonaws.com/cloud.kumu.io/accounts/261918/248108/38c811ed-4d9c-424d-a940-8b0452c2cdb4.png,,,,,"5,41146E+11",rasa@rasaprotect.com,"-35.54728065899812, -57.98619172081442",rasaprotect.com,
Promedon S.A.,Empresa,,"Nuestra Misión en Promedon es “Contribuir a restablecer la calidad de Vida de las personas, desarrollando y brindando a los profesionales de la salud tecnología médica segura y eficaz”. Esta es la razón por la que trabajamos todos los días y la razón de nuestra existencia.

Nuestra Visión es “Ser una empresa global, exitosa en todos los mercados donde opera”, y nos guía hacia donde queremos ir como organización. Es el reto que nos planteamos cuando pensamos en el futuro.",,,Av. Gral Manuel Savio L3 M3 Parque Industrial Ferreyra|Córdoba capital|provincia de Córdoba,Córdoba,Córdoba,,https://s3.amazonaws.com/cloud.kumu.io/accounts/262898/248108/7253ce00-8e35-497b-905a-7598c62c625f.png,,,,,,,"-31.465439728285606, -64.13798010442922",,
Penta S.A.,Empresa,Empresas|Empresa,"PENTA inicia sus actividades en Bahía Blanca en Diciembre de 1976, con el fin de fabricar y comercializar equipos electrónicos de control, orientándose paulatinamente hacia la fabricación de detectores de metales para control de calidad y protección de máquinas.
Una constante política de reinversión en desarrollo e innovación tecnológica le ha permitido ampliar su oferta de equipamientos, incorporando sistemas que combinan detección de metales, pesaje dinámico, dosificación y envasado.
Desde 2004 Penta es líder en el mercado argentino de detectores de metales y exporta regularmente a más de 10 países.","Industria Alimenticia
- Detección de metales
- Pesaje dinámico
- Sistemas combinados
- Sistemas de dosificación
- Soluciones especiales

Industria Minera
- Detector de metales para la industria pesada
- Automatización de procesos y optimización de layout

Industria Farmacéutica
- Detector y separador de metales para la industria farmacéutica",,"Pedro Pico 2561, (CP 8000), Bahía Blanca, Argentina.",Buenos Aires,Bahía Blanca,,https://s3.amazonaws.com/cloud.kumu.io/accounts/261918/663353/59c2496f-bddc-492c-93f3-1be3d8244b97.jpg,,,,"- Asistencia global maximizando su producción.

Sus programas preventivos están diseñados para ayudar a maximizar el tiempo de funcionamiento de los equipos de inspección y dar tranquilidad a los gerentes de fábrica, supervisores de línea y operadores. Brindan: puesta en marcha y capacitación / calibración técnica / validación operativa / programas de mantenimiento preventivo y capacitación en lugar de trabajo / concientización sobre el peligro de contaminantes metálicos y cómo controlarlos / determinación, validación y actualización de límites críticos de detección.

- Ingeniería I+D+I.

El departamento de Ingeniería de Penta cuenta con profesionales capacitados para brindar soluciones multidisciplinarias en automatización de procesos industriales para todo tipo de aplicaciones. Cada requerimiento es identificado y analizado de forma particular, como si fuera único, y a partir de ello se da comienzo a una rutina de tareas y responsabilidades que derivan en un resultado eficiente para su proceso y para s...",54 291 4550311 / 54 11 5353 9847,info@pentasa.com.ar,"Pedro Pico 2561, (CP 8000), Bahía Blanca, Argentina.",https://detectorespenta.com/index.html,
Biogénesis Bagó S.A.,Empresa,,"Somos una empresa de biotecnología especializada en el desarrollo, producción y comercialización de soluciones destinadas a la salud animal y ambiental.

Buscamos colaborar con el fortalecimiento del status sanitario de cada país, promover nuevos desarrollos productivos y asegurar el bienestar animal, humano y del ambiente. Nuestros productos están presentes en más de 60 países en América, Asia, Europa, Medio Oriente, Norte de África y Oceanía.",,,Ruta Panamericana Km 38.5|Garín|provincia de Buenos Aires,Buenos Aires,Garín,,https://s3.amazonaws.com/cloud.kumu.io/accounts/262898/248108/36acf62d-d4c2-4c6a-8217-522916445213.png,,,,,,,"-34.42418564761064, -58.71813926357605",,
Grupo Harmony,Empresa,,"Desde 1990 acercando sabores e ingredientes para la industria alimenticia y farmacéutica

Ponemos a disposición de toda la industria regional sabores, nutrientes, colorantes naturales, antioxidantes, mezclas a medida; todo un completo un portfolio de productos avalados por la ciencia y tecnología de los más importantes productores globales, Givaudan y DSM Nutritional Products.",,,Bruselas 574|ciudad de Buenos Aires,CABA,CABA,,https://s3.amazonaws.com/cloud.kumu.io/accounts/262898/248108/da78eac4-5210-49b7-a897-e3a00a8ce8fc.jpeg,,,,,,,"-34.63138535520089, -58.52213023559356",,
Agro-Nanotecno,Empresa,Empresas|Empresa,"Nanopartículas innovadoras como alternativa eco-amigable para el manejo de problemáticas agro-ambientales.
Somos un grupo interdisciplinario de investigadores del CONICET apasionados por la ciencia y la innovación. Desarrollamos nanopartículas de síntesis química y biológica, de bajo costo, compatibles con procesos industriales. Nos enfocamos en generar conocimiento en Nanotecnología aplicado a resolver problemas del agro y saneamiento ambiental.","La actividad agrícola de forma intensiva y extensiva genera una elevada demanda de nutrientes del suelo, lo que conlleva a una pérdida de la fertilidad. La nanotecnología tiene potencial para revolucionar el Agro mediante el uso de nanopesticidas, nanofertilizantes y nanos promotoras del crecimiento. En el escenario actual, la agricultura se enfrenta a una amplia gama de desafíos, como el ataque de plagas, la pérdida de la fertilidad del suelo, las condiciones climáticas fluctuantes y la contaminación ambiental. En el área de la nutrición vegetal el uso de la nanofertilizantes presenta diversas ventajas, tales como la liberación lenta y controlada de nutrientes, mejora la fertilidad del suelo, su productividad e incrementa la calidad de productos agrícolas. Además de una buena nutrición vegetal, la utilización de nanopartículas (NPs) incrementa la eficiencia en el uso de fertilizantes, reduciendo contaminación y costos. En Agro-Nanotecno logramos la biosíntesis de NPs con gran potencial para su uso como na...",,INBA-CONICET/FACULTAD DE AGRONOMIA-UBA Av. San Martin 4453 (1417) CABA - Argentina,CABA,CABA,,https://s3.amazonaws.com/cloud.kumu.io/accounts/263368/248108/e92a3c65-8535-4111-97b1-fc118d46b2e8.jpg,,"**Productos Nano para el Agro**
- Nanopartículas de plata con actividad bactericida
- Nanopartículas metálicas inductoras de germinación de semillas
- Nanopartículas de cobre con actividad fungicida
- Nanopartículas de zinc, manganeso y magnesio para nutrición vegetal
- Nanopartículas de óxido de hierro promotoras de la nodulación

**Productos Nano para el Ambiente**
- Nanopartículas bimetálicas/magnéticas eficientes en el tratamiento de efluentes y captura de contaminantes
- Hidrogeles nano-biocidas para el tratamiento de aguas",,,(54 11) 55960117 / (54 11) 63637373,rgiacometti@agro.uba.ar spagnole@agro.uba.ar,"-34.59765847938528, -58.48251959691415",,
Orbital Ingeniería,Empresa,Empresas|Empresa,"Orbital Ingeniería es una compañía Argentina radicada en Córdoba desde 1997.
Nuestro equipo de profesionales con amplia experiencia hace posible que nuestros productos satisfagan las más altas exigencias tanto en materia de calidad de los componentes, alta tecnología y facilidad de uso. Desarrollamos proyectos de ingeniería de altísima calidad de diferentes envergaduras para el tratamiento de aguas mediante la fabricación y comercialización de equipos con tecnología de última generación, que permiten optimizar las características físicas, químicas o microbiológicas del agua de acuerdo a las necesidades de cada cliente.
A través de estos años hemos desarrollado desde el ablandamiento y re-uso de agua para hogares, comercios y pequeñas industrias, hasta plantas potabilizadoras de agua para ciudades enteras y desmineralización de agua de mar. Nuestra mayor producción proveé una solución integral para torres de enfriamiento, calderas, agropecuarias (animales, riego, etc.), medicinales (diálisis, farmacopea, et...","Ósmosis Inversa
La ósmosis Inversa es un proceso por el cual, mediante la aplicación de presión sobre una membrana semipermeable, podemos lograr:
- Desalinización
- Reducción de la dureza (ablandamiento)
- Reducción del contenido de nitratos y nitrito
- Eliminación del color y de los precursores de trihalometanos

Equipos de filtración
- Filtros de Sedimentos/Multimedia
- Filtro de Carbón Activado
- Ablandadores/Suavizadores
- Resinas de Intercambio Iónico
- Nano-Filtración
- Ultra-Filtración
- Micro-Filtración

Esterilización
- Esterilizador por Rayos UV
- Unidad Integral Estirilizadora (UV+Ag)

Plantas Completas
- Plantas Potabilizadoras Alta Salinidad Bajo Caudal
- Plantas Potabilizadoras Baja Salinidad Bajo Caudal
- Plantas Compactas
- Tratamiento de Agua para el Campo",,Bv. Rivadavia 4371 - Bº Los Boulevares (5147) Córdoba – Argentina.,Córdoba,,,https://s3.amazonaws.com/cloud.kumu.io/accounts/263368/248108/8892a78c-f24c-4a34-a2bb-1df2e7204258.png,,,,,+54 351 589-0454 / +54 11 6009-0454,,"-31.42315802209943, -64.15325429172034",www.orbitalingenieria.com.ar,
Tintes Biodegradables S.A.S.,Empresa,,,,,Av. 7 840|La Plata|provincia de Buenos Aires,Buenos Aires,La Plata,,,,,,,,,"-34.91390050804499, -57.950369500344436",,
Electrargen S.R.L.,Empresa,Empresas|Empresa,"Desde hace más de treinta años, Electrargen S.R.L. es una empresa dedicada a proveer equipamiento de laboratorios analíticos de precisión, así como ofrecer asesoramiento de aplicaciones y soporte técnico en empresas de todo tipo, yendo desde la investigación científica hasta aplicaciones industriales.
Nos especializamos en las técnicas de fluorescencia y difracción de rayos X, microscopía electrónica y las preparaciones de muestra que estas técnicas conllevan.",,,"Amenábar No. 653, Piso 9, Of. 27, (C1426AJI), Buenos Aires, Capital Federal, Argentina",CABA,CABA,,,,,,,+ 54 (11) 4555 5376,elec@electrargen.com.ar,"Amenábar No. 653, Piso 9, Of. 27, (C1426AJI), Buenos Aires, Capital Federal, Argentina",www.electrargen.com.ar,
Mabb,Empresa,Ecosistema FAN|Empresas|Empresa|Incubadora,"MABB, fundada en el 2007, es una empresa de bioingeniería de triple impacto y alcance global, que utiliza modernos nanobiomateriales Cerámicos - Zirconia Yttria, y tecnologías CIM - amigables con el medio ambiente, para diseñar y producir piezas que conforman los sistemas de implantes dentales libres de metal; los cuales se comercializarán por empresas propias asociadas creándose en los diversos mercados objetivos, llamadas Z7, y por empresas aliadas con basta trayectoria y prestigio en los mercados, empezando por Argentina y los Estados Unidos de America.

MABB es creada y gestionada por un equipo multidisciplinario de emprendedores, empresarios, inversores, ingenieros, científicos y doctores comprometidos con los propósitos de triple impacto y en innovar constantemente en procesos, tecnologías y biomateriales que generen soluciones y productos de alto valor agregado para las personas, calidad y competitividad para las industrias y el mercado de la salud oral con el propósito de mejorar la calidad de vida...",,,25 de mayo 1021 - (1650) San Martín - Buenos Aires - Argentina,Buenos Aires,San Martín,,https://s3.amazonaws.com/cloud.kumu.io/accounts/261918/248108/4fdd776d-8ff8-4a30-bd8f-8e27f4ff159b.jpg,,"**Pilares Z7**
Los Pilares Z7 de MABB se producen con el Biomaterial Zirconia Yttria - nanocerámica,
normalizada y aprobada para uso médico. Han sido desarrollados por médicos e ingenieros de prestigio y referencia internacional, tomando en cuenta las necesidades y problemáticas en el mercado de la implantología dental mundial, con el fin de tener un producto de muy alta calidad a costos competitivos.
Con el fin de compartir esta tecnología, tanto en procesos como en biomateriales, y agregar valor a toda la cadena e industria, estos pilares han sido desarrollados para ser universales, con el fin de integrarse con fabricantes tradicionales de implantes de titanio que desarrollan sus propios adaptadores para compatibilizar con sus propios sistemas de implantes actuales, con el fin de cooperar en el mejoramiento de la industria, para llegar todos de manera competitiva a un mercado que hoy está desatendido en un 95% (personas desdentadas).

**Implantes Z7**
Después de más de 15 años de casuística global realiz...",,,(54 11) 2033 1455,info@mabbiomaterial.com,"-34.58166882202662, -58.52120100294337",https://mabbiomaterial.com/,
Wiener Laboratorios S.A.I.C.,Empresa,,"Desarrollamos, fabricamos y comercializamos soluciones integradas que posibilitan diagnósticos IVD en más de 50 países del mundo. Ofrecemos una amplia línea de productos, destinada a laboratorios clínicos y bancos de sangre. Generamos información clave y relevante para la toma de decisiones médicas, entendiendo al laboratorio como un eslabón crucial en la cadena de salud.",,,Moreno 1850|ciudad de Buenos Aires,CABA,CABA,,https://s3.amazonaws.com/cloud.kumu.io/accounts/262898/248108/b0133784-c729-40cd-82c4-2c972a033897.jpeg,,,,,,,"-34.61217852692573, -58.392519457461894",,
Géminis Farmacéutica S.A.,Empresa,,"Un laboratorio argentino fundado hace más de 30 años. Una empresa comprometida con la comunidad médica, sabiéndose capaz de ofrecer productos de calidad, confiables y accesibles. El cuerpo médico y farmacéutico son el eje de nuestra actividad, la razón de nuestro trabajo diario, la clave de nuestro crecimiento constante.",,,26 de Abril 3425|Ituzaingó|provincia de Buenos Aires,Buenos Aires,Ituzaingó,,https://s3.amazonaws.com/cloud.kumu.io/accounts/262898/248108/d5213a13-9869-4465-b0e3-0bd23f960e47.png,,,,,,,"-34.63514226592232, -58.700294472492374",,
InsuAgro,Empresa,,"Somos una empresa argentina dedicada a la venta y distribución de fitosanitarios, con amplia trayectoria en el mercado agropecuario.

Participamos en forma activa e innovadora en el negocio, a través de acuerdos de distribución con importantes empresas multinacionales y de la importación de activos para productos propios.",,,Av. Santa Fe 1731|ciudad de Buenos Aires,CABA,CABA,,https://s3.amazonaws.com/cloud.kumu.io/accounts/262898/248108/2ed8bd2a-0454-4390-a109-cc69f061ac50.png,,,,,,,"-34.595459802920054, -58.39245772205769",,
Latiner S.A.,Empresa,,,,,Santo Domingo 4431|ciudad de Buenos Aires,CABA,CABA,,,,,,,,,"-34.65768164423495, -58.40995902441804",,
Kovi S.R.L.,Empresa,,"Kovi SRL era una empresa textil de La Matanza que se dedicaba a la industria textil. En plena pandemia y en alianza con científicos del CONICET, la UBA y la UNSAM, se propusieron crear ""el mejor barbijo del mundo"". Así nació ATOM PROTECT, el producto conocido como el “barbijo del CONICET",,,Salta 1116|San Miguel|provincia de Buenos Aires,Buenos Aires,San Miguel,,https://s3.amazonaws.com/cloud.kumu.io/accounts/262898/248108/3fe9fb5e-684d-4758-9137-ac903eb5d3cb.jpeg,,,,,,,"-34.563386826671135, -58.67438361679374",,
iMvalv S.A.,Empresa,,"iMvalv ofrece el primer dispositivo oftalmológico activo e inteligente para regular la presión intraocular derivada de pacientes con glaucoma. Se trata del micro-implante de un microchip que permite aliviar la presión intraocular del ojo y evitar la ceguera.

El glaucoma es una enfermedad ocular que se caracteriza por un aumento patológico de la presión intraocular, debido a la falta de drenaje del humor acuoso. Existen tratamientos farmacológicos y quirúrgicos para reducir esta presión.

Cuando no funcionan, los pacientes usan implantes con válvulas pasivas que drenan el humor acuoso hacia afuera. Sin embargo, estos implantes presentan ciertos problemas, tales como: fibrosis, presión intraocular impredecible, que resulta en hipotonía y obstrucción por partículas.",,,Av. Belgrano 758|Sunchales|provincia de Santa Fe,Santa Fe,Sunchales,,https://s3.amazonaws.com/cloud.kumu.io/accounts/262898/248108/af314647-9ab3-4298-8862-34ee25b4a0c1.jpeg,,,,,,,"-30.937349973998224, -61.562658406425335",,
MUTECH Microsystems,Empresa,Empresa,"Somos una empresa, radicada en Bariloche, con capacidad para ofrecer una serie de equipos y herramientas de **micro** y **nanofabricación litográfica** para el desarrollo de **sensores** y **dispositivos** con múltiples aplicaciones.

Estamos enfocados en el desarrollo y venta de proyectos, sistemas y equipos para la promoción de la ciencia, tecnología y educación en las áreas de microfabricación, micro y nanomecánica y electrónica.

Nos interesa promover, a través del desarrollo y comercialización de equipos de alta tecnología, la formación de recursos humanos de calidad, para simplificar la generación de nuevos conocimientos y mejorar el acceso del sector productivo a nuevas tecnologías.",Micro y nanofabricación litográfica (Electrónica),,Tronador 3490|San Carlos de Bariloche|provincia de Río Negro,Río Negro,Bariloche,,https://s3.amazonaws.com/cloud.kumu.io/accounts/262898/663353/c03b9e3b-f2f7-491a-8da3-e88f480450ae.png,,"**microLaser** es un equipo de litografía láser directa de alto valor con capacidades de alineación, dirigido a laboratorios de investigación o universidades. El sistema escribe con una resolución submicrométrica en grandes áreas de hasta 10x9 cm en material fotosensible. Permite la escritura de cualquier cosa que el usuario desee, desde fotomáscaras hasta prototipos de investigación para ciencia básica o aplicada.|**microAligner** es un alineador de máscara UV LED de 365 nm compacto de alto valor diseñado para aplicaciones de microfabricación. Permite una fácil fabricación de dispositivos multicapa en una multitud de fotorresistentes con excelente calidad, gracias a su alta resolución y alta precisión de alineación.|**µCoater**, a pedido de nuestros clientes, hemos desarrollado una recubridora por centrifugación compacta con plato de vacío para la aplicación de películas delgadas de polímeros, fotorresinas, sol-gel, o cualquier otro material o proceso que el cliente necesite.|**µExposer** es una herramien...",,"**Fotomáscaras**

Con nuestro escritor de litografía, podemos proporcionar servicios de fabricación de fotomáscaras de cromo sobre vidrio, que podemos producir rápidamente con funciones de resolución micrométrica.

**Asesorar**

Además de vender equipos, también brindamos servicios de asesoría en microfabricación. Podemos asesorarlo en técnicas de microfluídica, microelectrónica, litografía, fabricación de MEMS, etc. Estamos en contacto con expertos en microfabricación de clase mundial.

**Salas de litografía**

Junto a la venta de equipos ofrecemos el montaje de salas de litografía, incluyendo su acondicionamiento lumínico, asesoría y los equipos asociados para el correcto funcionamiento de la sala.",0294 - 423 7776 / 0294 - 426 3481,martin.sirena@mutech.com.ar lucas.nener@mutech.com.ar,Tronador 3490 San Carlos de Bariloche provincia de Río Negro,https://mutech.com.ar/,
Stämm Bio,Empresa,,"Como empresa de biotecnología, Stämm hace que la producción biotecnológica industrial sea sencilla, escalable y reproducible. Inspirándonos en el ejemplo de la naturaleza, hemos desarrollado la primera tecnología para la producción industrial continua de productos biológicos y terapias celulares, posible gracias al uso de microfluidos e impresión 3D.

Nuestra empresa, fundada en 2016, transforma todo un sistema biotecnológico en un dispositivo de mesa con función ""plug & play"" utilizando el propio flujo laminar de la naturaleza. Nuestro objetivo es descentralizar los bioprocesos y permitir el acceso global a productos biotecnológicos. Esto nos permite facilitar el trabajo de nuestros socios de la industria y respaldar descubrimientos innovadores que cambian la vida de las personas.",,,Maipú 939|ciudad de Buenos Aires,CABA,CABA,,https://s3.amazonaws.com/cloud.kumu.io/accounts/262898/248108/dda498e5-79ac-4a56-ac07-f1ee7b8e43f1.png,,,,,,,"-34.59631283407286, -58.37720205751783",,
Establecimiento Las chilcas S.A.,Empresa,,"Somos una empresa familiar abocada a la industria agropecuaria desde 1980. Nuestro establecimiento está ubicado al norte de la Provincia de Córdoba, sobre la Ruta Nacional 9 Km 868, entre las localidades de Rayo Cortado y Villa de Maria de Rio Seco. Desde hace más de 30 años nos dedicamos a la producción agrícola a darle valor agregado a nuestros productos/procesos a través del engorde de ganado bovino y porcino, como así también a la industrialización de nuestra materia prima en la producción de alcohol aplicando tecnología e innovación con una mirada sustentable en nuestras acciones.

En los últimos años asumimos el enfoque a mejorar el impacto ambiental de nuestra industria al medio ambiente. Por medio de la implementación de la planta de Bioetanol en 2016 somos capaces de generar energía y alimento a la vez, potenciando el sistema en un circuito cerrado de economía circular. Es así que obtenemos un ahorro en la fertilización de las hectáreas trabajadas aportando no solo nitrógeno si no también fósforo,...",,,Ruta Nacional 9 Km 868|entre las localidades de Rayo Cortado y Villa de María de Río Seco|provincia de Córdoba,Córdoba,Rayo Cortado (en proximidad),,https://s3.amazonaws.com/cloud.kumu.io/accounts/262898/248108/3757cdd8-141d-456e-9e8d-67e4bb20b139.png,,,,,,,"-29.884257110130534, -63.80623579606973",,
NanoJump Bio,Empresa,,"En NanoJump Bio, nuestra tecnología facilita la extracción del genoma en cualquier lugar, por cualquier persona y a partir de cualquier muestra. Nuestro dispositivo portátil está estructurado con microcanales que contienen soluciones químicas y nanotecnológicas que inactivan microorganismos (como virus y bacterias) y extraen material genético de forma sencilla y segura, en cualquier lugar y a partir de cualquier muestra. Creemos que el estudio del ADN y el ARN seguirá influyendo en la cadena de valor de múltiples industrias.",,,Av. Montes de Oca 543|Capital Federal,CABA,CABA,,https://s3.amazonaws.com/cloud.kumu.io/accounts/262898/248108/0698de93-c588-4f38-8259-7d30a68b2fca.jpeg,,,,,,,"-34.63410723326485, -58.3754534479593",https://nanojump.bio/,
AgIdea SRL,Empresa,,"Nuestra misión es ofrecer servicios de I+D para convertir tecnologías precomerciales en soluciones para una agricultura más segura y respetuosa con el medio ambiente. Transformamos conceptos en realidades con impacto en la producción de alimentos.

Nuestra visión es liderar el mercado global de servicios de I+D como socios estratégicos de nuestros clientes, a través de una agricultura innovadora, segura y respetuosa con el medio ambiente.",,,Ruta 8 km 225.5|Pergamino|provincia de Buenos Aires,Buenos Aires,Pergamino,,https://s3.amazonaws.com/cloud.kumu.io/accounts/262898/248108/cc0e25fd-386c-4241-a9b0-5a1e471636fc.jpg,,,,,,,"-33.91412479286251, -60.574578877888726",,
Ebers,Empresa,Ecosistema FAN|Empresas|Empresa|Incubadora,"Ebers produce plantillas inteligentes capaces de de medir presiones plantares, temperatura y humedad a lo largo del día en pacientes que padecen diabetes, para así evitar la formación de úlceras.
Todos los datos recopilados por la plantilla se pueden observar y estudiar en su aplicación móvil, tanto por parte del usuario como del médico.",,,,,,,https://s3.amazonaws.com/cloud.kumu.io/accounts/261918/248108/e4777553-4905-4a70-bdea-fef6f63a5f85.jpg,,,,,,,"-34.581722373549276, -58.5210937145919",http://www.ebersmed.com/,
Kioshi Stone S.A.,Empresa,,"KIOSHI STONE S.A. es la primera empresa en llevar adelante procesos nano tecnológicos industriales para el agro. Posee una vasta experiencia en I+D+i que permite la generación continua de más herramientas para una agricultura de altos rendimientos, baja logística y de una imperceptible huella de carbono (CO2-eq), en relación con otras tecnologías de práctica.

Nuestros productos actúan y proporcionan importantes mejoras de salud del suelo (biota); su interacción inmediata y efecto sinérgico con los ecosistemas logran altos rendimientos en todos los cultivos (extensivos e intensivos); incrementando la actividad biológica y favoreciendo su desarrollo.

Es por ello, que en KIOSHI STONE, día a día seguimos evaluando los beneficios que proporcionan el uso de minerales en tamaño nanométrico, logrando aprovechar su gran capacidad de reacción, con muy bajo requerimiento de energía, en procesos biológicos tan importantes como son las reacciones del suelo y la fotosíntesis, participando en las escalas naturales do...",,,Centenario Uruguayo 957|Lanús|provincia de Buenos Aires,Buenos Aires,Lanús,,https://s3.amazonaws.com/cloud.kumu.io/accounts/262898/248108/d359b980-8eed-406d-ada4-8d31f3f65cb6.png,,,,,,,"-34.71709611201239, -58.35729805749394",,
Grupo Saporiti S.A.,Empresa,Empresas|Empresa,"Grupo Saporiti provee ingredientes, sabores y soluciones para la industria alimentaria y de bebidas desde 1927. Los ingredientes otorgan a los alimentos características únicas que interactúan con los sentidos humanos. Brindan gratificación sensorial, salud y bienestar a quien los consume, en un marco de bioseguridad.
En un trabajo coordinado realizamos evaluaciones de preferencias, análisis y anticipación de futuras tendencias y desarrollo del producto terminado de acuerdo a los requerimientos de cada cliente y de cada mercado.” Trabajamos mancomunadamente con nuestros clientes, compartiendo con ellos nuestra experiencia, conocimientos y recursos, con el fin de colaborar en el desarrollo de sus ideas y de sus productos.
La misión de Grupo Saporiti S.A. es colaborar con nuestros clientes para lograr el éxito mediante alimentos más ricos, más sanos y más seguros. Colaborar en el desarrollo de ideas y productos.","Grupo Saporiti crea y comercializa sus productos a través de sus cuatro divisiones:

SABORES:
Eso que está y no se ve, pero que conquista al entrar en contacto con el paladar. A partir de un minucioso estudio de los gustos y sabores preferidos por la gente, desarrollamos los siguientes productos:
- Sabores encapsulados secados en frío (sistema spray chilling).
- Sabores dulces (líquidos y en polvo)
- Sabores salados (líquidos y en polvo)
- Emulsiones
- Aceites esenciales

COLORES:
Un estímulo para nuestras retinas. Eso que nos mueve a acercarnos a ellos. Mediante un preciso trabajo de combinación y mezcla, desarrollamos los siguientes colorantes:
- Naturales líquidos y en polvo (carmín, rocú, cúrcuma)
- Sintéticos y en polvo

FUNCIONALES:
Es ese cuerpo, esa textura, esa consistencia que nos permite entrar en contacto con el espíritu del alimento. A partir del análisis de los principales factores de funcionalidad de los alimentos, desarrollamos los siguientes productos
- Estabilizantes
- Emulsionantes
- A...",,"Bartolomé Mitre 2366, Buenos Aires.",CABA,CABA,,https://s3.amazonaws.com/cloud.kumu.io/accounts/263368/248108/c123e3b5-6e9a-4f2c-abcf-99a4bff29032.png,,,,,54.11.5861.6100 / 0800.888.7276,info@gruposaporiti.com,"Bartolomé Mitre 2366, Buenos Aires.",www.gruposaporiti.com,
Bioprofarma Bagó S.A.,Empresa,,"Proveemos medicamentos con alto valor agregado para el cuidado de la salud y tratamientos de enfermedades de elevada complejidad, para pacientes en general y para la comunidad médica y científica.

Nuestros Productos están orientados principalmente para su utilización en patologías Hematológicas, Oncológicas, Urológicas, Neurológicas y en Enfermedades Raras.",,,Terrada 1270|Capital Federal,CABA,CABA,,https://s3.amazonaws.com/cloud.kumu.io/accounts/262898/248108/a41f2dc2-0d16-4116-9834-7a9a779f9a68.png,,,,,,,"-34.61620647797584, -58.4738943284653",,
FanIOT,Empresa,Empresa,"Somos una empresa argentina dedicada a la fabricación de **nanosensores**, orientados a la ciencia y a la educación de carácter innovador, que surge como una iniciativa del **Gobierno de Misiones**, a través de su **Ministerio de Educación, Ciencia y Tecnología** en colaboración con **SmartCultiva**, **Polo Tic** y **Marandu Comunicaciones S.E.**

Buscamos desarrollar soluciones tecnológicas IOT, para robótica educativa y ciudades inteligentes, con un concepto colaborativo y versátil.","Tecnología IoT, Robótica Educativa, Ciudades Inteligentes",,Calle 62 y 229|Paraje Nemesio Parma|Parque Industrial Posadas|ciudad de Posadas|provincia de Misiones,Misiones,Posadas,,https://s3.amazonaws.com/cloud.kumu.io/accounts/262898/663353/c7bd79fa-b51f-4d06-aa30-b7304e7da350.png,,"**Soluciones para COVID-19**

Los termómetros infrarrojos inteligentes IOT están diseñados y desarrollados para ofrecerte la máxima precisión en tus mediciones de temperatura en personas, objetos y ambientes.|**Sensores CO2 IOT / NDIR**

Los CO2 Sensores IOT detectan altas concentraciones de CO2 en espacios cerrados, para evitar ambientes viciados y contribuir a la lucha contra el Covid-19.|**Soluciones para Educación**

Los módulos educativos FANIOT, introducen al estudiante en los trabajos del futuro, vinculados a la robótica y a la programación.|**Robótica Educativa**

El **FanBorg** es un Robot Interactivo, 100% integrado con WiFi, con el que podrás explorar la Robótica Móvil de una manera novedosa.|**Ciudades Inteligentes**

Todos los nanosensores desarrollados poseen tecnología IOT y alimentación solar -mediante paneles de máxima eficiencia energética - que pueden ser empleados para medir y monitorear en tiempo real la concentración de gases
de efecto invernadero y/o la presencia de contaminantes, ...",,"Ofrecemos soluciones para el desarrollo de ciudades inteligentes y una educación
innovadora.",,hola@faniot.com.ar,Calle 62 y 229 Paraje Nemesio Parma Parque Industrial Posadas ciudad de Posadas provincia de Misiones,https://faniot.com.ar/,
Qumir Nano S.A.,Empresa,,"La nanobiotecnología es un campo que introduce las propiedades biológicas especiales de las nanoestructuras y sus aplicaciones en ámbitos como la agricultura. En Qumir Nano, combinamos las mejores propiedades de los mundos químico y biológico y utilizamos nuestra colección de nanofábricas (bacterias u hongos) para sintetizar bio-nanopartículas de plata, zinc y cobre con cubiertas orgánicas distintivas.

Nuestras bionanopartículas de plata tienen una excelente actividad antimicrobiana y son capaces de controlar la enfermedad de la raya roja en la caña de azúcar. Actualmente, estamos realizando ensayos in vivo para otras enfermedades relevantes de la caña de azúcar. Todo el proceso desarrollado por Qumir Nano es escalable, sostenible y rentable. El uso de nuestras bio-nanopartículas puede extenderse, por ejemplo, a la formulación de cócteles de nanofertilizantes.",,,Av. Libertador 1920|Capital Federal,CABA,CABA,,https://s3.amazonaws.com/cloud.kumu.io/accounts/262898/248108/88d935be-b957-4972-9921-42e521de8109.png,,,,,,,"-34.58193388629539, -58.40115929323006",,
FabriQuimica S.A.U.,Empresa,Empresas|Empresa,"Desde 1961, inspirando y sirviendo al mercado mundial de materias primas destinadas principalmente a la industria cosmética y farmacéutica.
Nuestros 55 años nos avalan para estar siempre a la vanguardia en innovación, calidad, trazabilidad y superar constantemente los estándares productivos.
Realizamos asesoramiento integral y soluciones tecnológicas cubriendo las necesidades de cada cliente, brindamos soporte y formulaciones de avanzada.
Realizamos trazabilidad de lotes de fabricación de las materias primas que producimos.
Mantenemos una actividad científica activa, participando con trabajos en los congresos nacionales e internacionales de Química Cosmética.
Creamos y desarrollamos nuevos productos, siendo premiados en varias oportunidades.
Innovación, investigación e inversión para el logro de productos de primer nivel bajo normas ISO 9001:2008
Productos inscriptos en Personal Care Products Council.",,,"España 3313, (B1650IJA), Villa Lynch, San Martín, Buenos Aires, Argentina",Buenos Aires,San Martín,,https://s3.amazonaws.com/cloud.kumu.io/accounts/263368/248108/568d8ffe-b89a-4ae8-b9bc-31bceb57591a.gif,,,,"- Formulaciones para el desarrollo de su línea cosmética.
- Envío de hojas de seguridad de producto.
- Asesoramiento sobre los productos obtenidos a partir de las materias primas de fabriQuimica.
- Asesoramiento sobre métodos de producción de productos cosméticos.
- Presentaciones a clientes de alto impacto.
- Comercio exterior para el despacho de materias primas argentinas a cualquier país del mundo.
- Asistencia técnica sobre parámetros de calidad de materias primas y productos finales.
- Principales regulaciones a atender en el mercado de la cosmética.",(+54 11) 4753-0894/3470,info@fabriquimica.com,"España 3313, (B1650IJA), Villa Lynch, San Martín, Buenos Aires, Argentina",www.fabriquimica.com,
West Lubricantes S.A.,Empresa,Empresas,"Somos una empresa argentina con 50 años de experiencia en la formulación y elaboración de aceites y grasas lubricantes.

Contamos con una planta de producción y un laboratorio de investigación y desarrollo, creado para testear todas nuestras materias primas y productos terminados, garantizando la excelencia en su desempeño.

Brindamos una amplia gama de aceites lubricantes y grasas adaptadas a diferentes necesidades del mercado, lo que permite dividir nuestros productos en 3 líneas: Industrial, Automotriz y Ferretería.

Nuestro sistema de gestión, trabaja bajo Normas IRAM / ISO 9001/2008 y IQNET 9001/2000. Asimismo nuestros productos cumplen las más estrictas normas de control: API, SAE, ISO NLGI, AGMA y MIL.

El conocimiento, experiencia y trayectoria en el rubro conjugan en la prestación de servicios a terceros, como ser la producción y almacenaje de lubricantes y grasas, desarrollo de productos especiales, laboratorio y asesoramiento técnico para las mas diversas necesidades.

Conscientes de las dema...",Productos químicos,,Tres Arroyos 329|Haedo|Provincia de Buenos Aires.,Buenos Aires,Haedo,,https://s3.amazonaws.com/cloud.kumu.io/accounts/262898/663353/788fb83e-0ac0-43ee-bdec-44bad691637c.png,,"Usar la nanotecnología para fabricar aceites lubricantes más eficientes energética y medioambientalmente es el objetivo de West Lubricantes.

West Lubricantes se encuentra asociada al Conicet, dentro del marco de un proyecto del Ministerio de Ciencia y Tecnología de la Nación , constituyendo una E.B.T. ( empresa de base tecnológica ) con el propósito de producir a escala de planta piloto un nanobiopolímero que tendrá entre otros usos la función de ser aditivo para la elaboración de nuestros productos.

Los nanobiopolímeros tienen múltiples aplicaciones transversales, desde componentes de electrónica flexible, hasta salud y medicina, pasando por envases o recubrimientos, para diversos usos y demandas.

Estamos orgulloso de estar a la vanguardia en desarrollo e investigación tecnológica.",,,011 - 4483 0240,info@westlubricantes.com.ar,"-34.641437021325764, -58.608447712017885",http://www.westlubricantes.com.ar,
Dhacam S.R.L.,Empresa,Empresas|Empresa,"Somos una empresa argentina nacida en el año 1990 y poseemos una amplia trayectoria en el desarrollo, la elaboración, y la comercialización de principios activos para la industria cosmética, farmacéutica, fitoterápica, veterinaria, alimenticia (alimentos funcionales y suplementos dietarios) y de bebidas. Aplicamos los más estrictos métodos y controles de calidad a lo largo de todo el proceso de producción, desde la admisión de las materias primas hasta la obtención del producto final, basándonos en las buenas prácticas de manufactura.
Asimismo brindamos asesoramiento personalizado en el desarrollo de productos a medida del cliente y contamos con una División Analítica a través de la cual ofrecemos servicios de Análisis y Controles de Calidad para terceros.
Gracias a la enorme biodiversidad que nos rodea contamos con una amplia gama de productos para atender las más variadas necesidades del mercado, las cuales se encuentran en permanente evolución. Nuestras líneas de productos entre otras incluyen: Extracto...",,,"Cafayate 1872 (C1440FLP), Ciudad Autónoma de Buenos Aires, Argentina",CABA,CABA,,https://s3.amazonaws.com/cloud.kumu.io/accounts/263368/248108/fe969cc9-36d2-484c-bebd-f35a5b256fef.png,,"**NANOSFERAS: **
●anti-aging
●antiinflamatorias p/varices
●antioxidantes-revitalizantes
●capilares
●con ácido lipoico
●con ácido retinoico
●con ADN
●con ADN vegetal
●con alantoína
●con alfa hidroxiácidos
●con aloe vera
●con aminoácidos
●con avena
●con biotina
●con cafeína
●con cafeína y carnitina
●con cafeína, carnitina y centella asiática
●con cafeína, carnitina y coenzima A
●con caléndula
●con carnitina
●con castaña de indias
●con citopeptinas
●con coenzima A
●con coenzima Q10
●con coenzima Q10 y coenzima R
●con colágeno
●con colágeno marino
●con colágeno y elastina
●con complejo anticaída II
●con complejo blanqueador sin hidroquinona
●con complejo preventivo para circulación
●con dhamatanes
●con dhamatanes 50
●con dhatrales
●con d-panthenol
●con elastina
●con filtros solares
●con fosfatidilcolina
●con hamamelis
●con jalea real
●con minoxidil
●con nicotinamida
●con oligoelementos con olivo (hojas)
●con papaína
●con placenta
●con polifenoles
●con proceramidas ...",,"**ASESORÍA, DESARROLLOS Y CONSULTORÍA:**
Sobre ingredientes activos, biomoléculas y sistemas de liberación, así como también sobre procesos y productos terminados. Asesoría creativa, integral y profesional.

**CONTROLES DE CALIDAD PARA TERCEROS:**
Tercerizamos análisis de productos terminados y materias primas de cosméticos, alimentos, suplementos dietarios, farmacéuticos y veterinarios. Desarrollamos junto a nuestros clientes, soluciones profesionales, éticas, tangibles y confidenciales a medida de cada necesidad y objetivo por cumplir.

**PRODUCTOS: **
●Aceites de alta densidad (AD)
●Extratos oleosos
●Extractos glicólicos
●Extractos alcohólicos
●Extractos secos
●Extractos glicerinados
●Nanosferas
●Liposomas
●Lipestab
●Productos bebibles
●Dhamaspheras
●Complejos
●Proteínas de origen vegetal
●Proteínas de origen animal",(54 11) 4686-3008,info@dhacam.com.ar,"Cafayate 1872 (C1440FLP), Ciudad Autónoma de Buenos Aires, Argentina",www.dhacam.com.ar,
Laboratorio Bioquímico Mar del Plata S.A.,Empresa,,,,,Rivadavia 3327|Mar del Plata|provincia de Buenos Aires,Buenos Aires,Mar del Plata,,,,,,,,,"-37.995544487037094, -57.55488475775411",,
Ako SRL,Empresa,,,,,Elpidio González 1100|Villa Allende|provincia de Córdoba,Córdoba,Villa Allende,,https://s3.amazonaws.com/cloud.kumu.io/accounts/262898/248108/1ac57528-b40b-4506-8cba-e36a3d53ecbe.jpg,,,,,,,"-31.287547613427236, -64.30912819321387",,
Nairoby,Empresa,Empresas|Empresa,"Nairoby es una startup argentina situada en Mar del Plata, especializada en una tecnología que permite fabricar tablas de snowboard y esquíes sustentables personalizados a partir de un compuesto especial termoplástico micro/nano reforzado.
Mejoraron radicalmente la relación con el material deportivo para el usuario, el alquiler y nuestro planeta, brindando la tecnología para personalizar el equipo online, entregarlo en el lugar donde será utilizado y luego devolverlo para ser reprocesado, reciclado y reutilizado a crear nuevos equipos en un modelo de economía circular que minimice el impacto ambiental.
El modelo de negocio de Nairoby está basado en la economía circular. Este esquema de producción permite volver a procesar una tabla usada, incluso aunque esté rota, y obtener una nueva a partir de ella.",,,"French, B7604DHB, Mar del Plata, Provincia de Buenos Aires.",Buenos Aires,Mar del Plata,,https://s3.amazonaws.com/cloud.kumu.io/accounts/261918/248108/70f6f7a4-95cb-4e14-816d-5243db00c907.png,,,,,2235245727,info@nairoby.com,"French, B7604DHB, Mar del Plata, Provincia de Buenos Aires.",http://www.nairoby.com/,
Einsted.Bio,Empresa,,"Creamos una solución rápida, limpia y revolucionaria para el sector energético. Esta solución reutiliza dos de los gases de efecto invernadero más dañinos: dióxido de carbono (CO2) y metano (CH4), convirtiéndolos en energía descarbonizada.

Nuestra solución reduce las emisiones de gases de efecto invernadero y genera un subproducto de carbono: el óxido de grafeno, que puede utilizarse en diversas industrias.

Esto significa que no sólo estamos ayudando a combatir el cambio climático, sino que también estamos impulsando la economía circular.",,,,,,,https://s3.amazonaws.com/cloud.kumu.io/accounts/262898/248108/3880a846-621d-4818-96f1-abb149a38a09.jpeg,,,,,,,"-34.63550523470539, -58.40210144437501",,
BRAM S.A.S.,Empresa,,"Nos dedicamos a la provisión de especialidades químicas para diversas industrias y aplicaciones.

Somos una empresa química en rápida expansión con base en Buenos Aires, Argentina, dedicada a la provisión de especialidades y commodities químicas para diversas industrias, con especial foco en química de superficies (Tratamiento de Superficies metálicas y plásticas + Limpieza & Desinfección). Poseemos un sistema integrado de fabricación, laboratorios, logística y ventas, asegurando respuesta a tiempo.

Nuestra propuesta de valor se basa en ofrecer productos de alta calidad con un soporte técnico de excelencia y un enfoque comercial a largo plazo, bajo las premisas de transparencia, flexibilidad, agilidad y costos muy competitivos, para contribuir al éxito de nuestros clientes.",,,Calle 882 815|Quilmes|provincia de Buenos Aires,Buenos Aires,Quilmes,,https://s3.amazonaws.com/cloud.kumu.io/accounts/262898/248108/d20ee3ed-0ac9-474e-a4fc-d80fc151c3a6.jpeg,,,,,,,"-34.75230172166524, -58.311694805614195",,
BIO H41 S.A.,Empresa,,"Buscamos producir mediante biotecnología componentes útiles para la nutrición humana y animal, para la salud y la cosmética.",,,Bruselas 574|Capital Federal,CABA,CABA,,,,,,,,,"-34.63136769931819, -58.52215169323003",,
Biomatter,Empresa,Empresas|Empresa,"Innovative Materials for Biomedical Solutions

BIOMATTER S.A. es una EBT (EMPRETECNO-PAEBT 0037) que apunta a realizar actividades de investigación, desarrollo, fabricación, comercialización de dispositivos médicos o biotecnológicos destinados a uso humano, veterinario o biológico. El proyecto presentado en el EMPRETECNO tuvo por objeto el desarrollo de una membrana reabsorbible promotora del crecimiento ordenado de células dérmicas y epidérmicas para la regeneración de piel en úlceras o quemaduras, producto comercializable como parte de un kit que posibilite la instancia quirúrgica completa. Se avanzó en el escalado industrial y se realizaron estudios preclínicos in vitro e in vivo que acreditaron la función esperada de la membrana, a la que denominamos MEREL.","Desarrollo de membranas reabsorbibles para ingeniería de tejidos.
Innovación en el desarrollo de nuevos productos para ingeniería de tejidos y aplicaciones médicas.
Producción de biomateriales y dispositivos con diseños a medida.
Difusión de la innovación tecnológica en simposios y congresos.
Gestión de comercialización de productos propios.
Transferencia tecnológica.
Búsqueda de alianzas tecnológicas e inversores.

Aspectos comerciales
•Cursos de formación a médicos sobre utilización del producto
•Organización de simposios para difundir el producto
•Formación de equipo especializado de promoción y ventas
•Negociación con los principales canales de comercialización: Droguerías Institucionales, Instituciones Privadas y Públicas, Obras Sociales, ART y Prepagas. Internacionalización del producto •Alianzas estratégicas para exportar o licenciar el producto al exterior: vínculos con laboratorios de América Latina (Brasil,Uruguay, Chile y Paraguay), España, Francia, Canadá y Estados Unidos.",,O'Higgins 2550|Capital Federal,CABA,CABA,,https://s3.amazonaws.com/cloud.kumu.io/accounts/263368/248108/ec772bba-856b-4b40-b12c-635c33aabe40.jpg,,"La ingeniería de las membranas, verdaderos andamios para la adhesión y proliferación celular, incluye una estructura con porosidad jerárquica desde micro a nanoporos interconectados, acordes a las células a cultivar en cada cara del andamio.",,,,elidahermida@gmail.com,"-34.55559255429907, -58.456626763539425",http://www.agencia.mincyt.gob.ar/upload/PAEBT_0037_-_BIOMATTER_-_Elida_Hermida_Alberto_Bolgiani_y_Alberto_Achille.pdf,
Clorar Ingeniería S.A.,Empresa,,"Clorar Ingeniería SA es una empresa argentina que se dedica a la Consultoría, Investigación, Desarrollo y Diseño de procesos químicos y electroquímicos para la industria.

Las misiones de la empresa son: alcanzar un reconocimiento por parte del medio productivo y de los sectores académicos por la calidad de sus trabajos de ingeniería, ser referencia nacional en el área de los procesos electroquímicos, generar ámbitos de trabajo que incentiven la creatividad y la satisfacción del personal interviniente, y realizar un aporte a la independencia técnica y tecnológica de nuestro país y la región.",,,Parque Tecnológico Litoral Centro|Santa Fe capital|provincia de Santa Fe,Santa Fe,Santa Fe,,https://s3.amazonaws.com/cloud.kumu.io/accounts/262898/248108/284bc3bf-807d-42ee-9521-c23c85dfbf29.png,https://www.linkedin.com/company/clorar-ingenieria/?originalSubdomain=ar,,,,,,"-31.636362898630683, -60.666465282433585",,
Leandro Santana,Empresa,,,,,Suipacha 216|Quilmes|provincia de Buenos Aires,Buenos Aires,Quilmes,,,,,,,,,"-34.71192200148586, -58.26432989541878",,
Sherwin Williams,Empresa,Empresas|Empresa,"Sherwin-Williams es una compañía de capital estadounidense dedicada al desarrollo, fabricación y venta de pinturas y recubrimientos, así como en la comercialización de productos relacionados.
Somos una empresa de gran trayectoria, con crecimiento sostenido, líder en el mercado que promueve una gestión sustentable.
La excelencia y la innovación de nuestros productos contribuyen a dar color a la comunidad de la que somos parte.
CALIDAD el éxito de nuestra empresa. Desde el principio, nuestros fundadores insistieron en tener productos, procesos y personas de la mejor calidad. Hoy, esta dedicación a ser los mejores sigue siendo una marca registrada de nuestra empresa. Con un fuerte compromiso a la mejora continua, nos desafiamos a nosotros mismos a fijar el estándar de la industria en la excelencia de los colores, productos y recubrimientos que preservan, protegen y embellecen.","- Línea de hogar y obra
- Cuidado de la madera
- Aerosoles
- Mantenimiento industrial
- Repintado automotor",,"Hipólito Yrigoyen 1579 (1702) - Cuidadela - Buenos Aires, República Argentina.",Buenos Aires,Ciudadela,,https://s3.amazonaws.com/cloud.kumu.io/accounts/263368/248108/01916ef7-d979-4708-8611-b84c64d99270.png,,,,,8.102.226.567,,"Hipólito Yrigoyen 1579 (1702) - Cuidadela - Buenos Aires, República Argentina.",www.sherwin.com.ar,
NovoSens S.A.S.,Empresa,,"Desarrollamos dispositivos de medición basados en biosensores. Innovamos en los procesos industriales y en el diagnóstico por biomarcadores. Creamos soluciones más simples, rápidas y fáciles de utilizar.",,,Juan Cruz Varela 2796|Córdoba Capital|provincia de Córdoba,Córdoba,Córdoba,,https://s3.amazonaws.com/cloud.kumu.io/accounts/262898/248108/645f9b1c-e598-49bd-bca0-38fcbcafb8de.jpeg,,,,,,,"-31.365308807302664, -64.22528068227533",,
Atom Protect,Empresa,Empresa,"Somos un equipo de investigación integrado por científicas y científicos del **CONICET**, la **Universidad de Buenos Aires** (UBA) y la **Universidad Nacional de San Martín** (UNSAM), con el apoyo de la PYME textil **Kovi S.R.L.**, que desarrolló telas tratadas con activos antivirales, bactericidas y fungicidas para, entre otras cosas, fabricar barbijos de uso social.

Este consorcio público - privado actualmente comercializa los tapabocas Atom Protect, conocidos como los **barbijos del CONICET**.",Desarrollo de textiles y productos antivirales,,Larrea 579|Capital Federal,CABA,CABA,,https://s3.amazonaws.com/cloud.kumu.io/accounts/262898/663353/97b5c3d0-f7b8-4505-8c53-dbacba563950.png,,"**Mascarillas antivirales** de uso social, con iones de plata y cobre, que le confieren a las mismas la capacidad de eliminar virus, bacterias y hongos. Este tapabocas es reutilizable y permite hasta 15 lavados.|**Mascarillas antivirales N95** de uso social con mayor capacidad de filtrado y de retención de partículas aéreas. Esta versión no es reutilizable.|**Paños antivirales** con nanopartículas de plata y cobre para desinfección de objetos y superficies.|**Cofia antiviral** de uso médico o para espacios de alta exposición|**Mameluco antiviral** para el personal de salud o para trabajadores que se desenvuelven en espacios de alta exposición.|**Funda de almohada** antiviral tratada con iones de plata y cobre.",,Ofrecemos una serie de productos de gran utilidad en el contexto actual de la pandemia del coronavirus.,011 - 15 3302 5368 / 0810 - 444 5767,info@atomprotect.com.ar,"-34.60230633834544, -58.40202662993975",https://atomprotect.mitiendanube.com/,
International Chemicals de Argentina S.A.,Empresa,Empresas|Empresa,"International Chemicals de Argentina es una empresa nacida en la ciudad de Buenos Aires, con proyección internacional, que se especializa en la comercialización de productos químicos para todas las industrias, operando como exportador, importador y distribuidor de las mismas en sus cuatro principales líneas de productos: Feed, Agro, Nano e Industrial.
International Chemicals de Argentina supo interpretar claramente las necesidades insatisfechas del mercado químico ofreciendo soluciones que lograron su inmediata aceptación.
El crecimiento de International Chemicals de Argentina es el resultado de unir inversión constante, esfuerzo tecnológico y un equipo humano totalmente idóneo y consolidado para conseguir la excelencia institucional necesaria para proveer las demandas que nuestros clientes y proveedores merecen.","- Agro: protección y nutrición funcional para cultivos.
- Feed: nutrición y sanidad animal.
- Industrial: aplicaciones y procesos industriales.
- Nano: Ingeniería Molecular.",,Santiago del Estero 1949|(C1136ABO) Constitución|CABA|Argentina.,CABA,CABA,,https://s3.amazonaws.com/cloud.kumu.io/accounts/263368/248108/010c49f7-c334-4891-b5c7-fec57f24ca21.jpg,,,,,4331-2582,info@ica-sa.com.ar,"Santiago del Estero 1949, (C1136ABO) Constitución, CABA, Argentina.",www.ica-sa.com.ar,
Jenck S.A.,Empresa,Empresas|Empresa,"Jenck S.A. fue establecida en 1989 para brindar un servicio integral a las empresas e instituciones de Argentina que utilizan instrumental analítico en sus laboratorios y en sus controles de procesos.
Los servicios incluyen el asesoramiento previo a la adquisición del instrumental, su provisión e instalación, la capacitación del personal, el soporte técnico para el desarrollo de métodos analíticos, la calificación y certificación de instrumentos con patrones trazables y el servicio técnico de mantenimiento preventivo y reparaciones.","- Agua y ambiente
- Alimentos
- Automotriz y Autopartes
- Biocombustibles
- Biotecnología
- Ciencias de la vida
- Ciencias de materiales
- Ciencias forenses, Seguridad y Justicia
- Educación
- Electrónica y Comunicaciones
- Energía y Electricidad
- Farmacéuticos
- Gas, Petróleo y Petroquímica
- Higiene y Belleza
- Metalúrgica
- Minería
- Nanotecnología
- Química
- Salud",,Av. Álvarez Thomas 228 - (C1427CCP) Ciudad Autónoma de Buenos Aires - Argentina,CABA,CABA,,https://s3.amazonaws.com/cloud.kumu.io/accounts/263368/248108/2e3737e9-a9d5-4b60-956b-d0274bf27333.png,,,,"TÉCNICAS ANALÍTICAS
- Accesorios para laboratorio
- Analizadores elementales y específicos
- Análisis de tamaño de partículas
- Análisis térmico
- Balanzas
- Centrífugas y Ultracentrífugas
- Columnas
- COVID-19
- Cromatografía y Electroforesis
- Electroquímica, Electroanalítica
- Ensayos físicos
- Espectrofotometría
- Espectrometría de Masas
- Espectrometría de Rayos X
- Filtración
- Medidores de Color y Apariencia
- Microbiología del agua
- Microscopía, Espectrometría Electrónica
- Muestreadores de aire
- Preparación de muestras
- Reactivos
- Recubrimiento de superficies
- Resonancia magnética
- Resonancia Paramagnética Electrónica
- Sintetizadores y Secuenciadores
- Sistemas asistidos por Microondas
- Testeo rápido
- Tituladores
- Turbidimetría",(54 11) 4014 5300,,"-34.581756242027424, -58.44754450295153",https://www.jenck.com/,
La Química Quirúrgica,Empresa,Empresas|Empresa,"Por más de 50 años La Química Quirúrgica ha provisto productos y servicios de calidad a laboratorios de control de calidad, investigación y desarrollo en Argentina. La actividad inicial de la compañía fue la provisión de productos científicos (principalmente reactivos químicos) en laboratorios y hospitales.
La Química Quirúrgica atiende a cerca de 2000 clientes en Argentina. Muchos de ellos son compañías internacionales, y ningún cliente representa más del 5% de nuestras ventas.","Industria - Control de Calidad y Desarrollo
- Farmacéutica
- Alimentos y Bebidas
- Petróleo
- Químicas y Petroquímicas
- Minería
- Metalúrgica y Siderúrgica
- Biotecnología
- Laboratorios de Inspección y Servicios
- Laboratorios de Medio Ambiente
- Otros: Cueros, Pulpa y Papel, Textil, Agricultura, Transporte, Energía

Investigación
- Farmacéutica
- Biotecnología
- Institutos de Gobierno
- Fundaciones
- Hospitales y Centros de Salud
- Universidades",,Saavedra 247 C1083ACE - Buenos Aires - Argentina,CABA,CABA,,https://s3.amazonaws.com/cloud.kumu.io/accounts/263368/248108/a31bf62a-0918-4bf8-b5f0-d461441d135a.jpg,,,,"- Insumos: stock de más de 7.000 productos de consumo habitual en laboratorios analíticos, físico-químicos y de investigación.

- Equipamiento: instrumental analítico para laboratorios industriales, de investigación, y medioambientales. Servicio de asesoramiento, garantía y post-venta.

- Procesos: Control de temperatura / Cultivo celular / Reactores / Sistemas de agitación.

- Proyectos: más de 200 laboratorios instalados con nuestra marca Modulab. La línea de Fisher Hamilton extiende nuestro rango de módulos, mesadas, campanas extractoras y accesorios.",+54 (11) 5277-7200,,"-34.6126721942211, -58.403278206076465",www.laqq.com.ar,
Analytical Technologies S.A.,Empresa,Empresas|Empresa,"Somos una empresa Argentina, con sede en Panamá, Paraguay y Uruguay; que brinda equipamiento científico y servicios de posventa, de alto valor agregado, para la industria de la Química Analítica, Genómica y Nanotecnología.

Ofrecemos equipos de análisis de última generación, brindamos asesoramiento técnico profesional que garantiza su rápida implementación y alto desempeño durante todo el ciclo de vida y disponemos de un Centro de Alta Tecnología Analítica (CATA) para nuestros clientes.

Nos avala la calidad de nuestras marcas representadas y nos distingue una profunda vocación de servicio y filosofía empresarial que nos convierten en líderes del mercado de provisión de soluciones científicas.","- Química analítica:
Como líder mundial en instrumentación analítica y de medida, el objetivo de Agilent Technologies es aportar una solución global a las necesidades de su laboratorio. Agilent le ofrece la puesta en marcha de su aplicación aportando la solución más completa: instrumentos, consumibles, soporte técnico, conocimiento normativo y un amplio catálogo de aplicaciones llave en mano.
Análisis Químico. Soluciones para todos los mercado.
- Análisis elemental:
Bruker diseña y produce instrumentos analíticos para Análisis Elemental, investigación de materiales e investigaciones estructurales y de superficies. Las innovadoras soluciones que ofrecemos permiten que un amplio espectro de clientes en la industria pesada, química, farmacia, semiconductores, solar, ciencias biológicas, nanotecnología e investigación académica haga avances tecnológicos y acelere su progreso.
- Biología molecular:
En Analytical Technologies contamos con los recursos y soluciones integrales para completar y fortalecer su cad...",,"Av. Mitre 3690, B1605BUS Munro, Buenos Aires - Argentina",Buenos Aires,Vicente López,,https://s3.amazonaws.com/cloud.kumu.io/accounts/263368/248108/5cd4adab-cfd9-4a83-a613-3f5fdb8d4f31.png,,,,,+54 11 4509-9000,,"Av. Mitre 3690, B1605BUS Munro, Buenos Aires - Argentina",www.analytical.com,
Grupo Serval,Empresa,,"Somos una empresa productora de materias primas para la industria alimenticia. Contamos con más de 30 años en el mercado, ubicados en el Parque Industrial de San Lorenzo, provincia de Santa Fe, Argentina.

Aplicando conocimentos técnicos y el nivel tecnológico de su planta, nuestros productos son reconocidos por su carácter de innovación y funcionalidad asegurando la máxima calidad de los mismos.",,,Autopista Rosario - Santa Fe y Ruta Provincial N° 10|San Lorenzo|provincia de Santa Fe,Santa Fe,San Lorenzo,,https://s3.amazonaws.com/cloud.kumu.io/accounts/262898/248108/c149ea90-dcdc-446e-87f6-8a8344ee2519.jpeg,,,,,,,"-32.72103577264788, -60.772181302752635",,
BioMetallum,Empresa,,"BioMetallum es una startup Argentina especializada en biominería, dedicada al diseño y desarrollo de soluciones para la eficiente extracción de litio y otros metales. Nuestro enfoque de clean tech implica la manipulación y modificación de microorganismos con características específicas, lo que nos permite reemplazar el uso de productos químicos y prácticas contaminantes comúnmente presentes en la minería.

Al hacerlo, contribuimos a mejorar la eficiencia de extracción, preservar el recurso del agua y reducir el impacto ambiental. Nuestros métodos innovadores se alinean con la creciente tendencia de prácticas sustentables en las empresas de biotecnología, colaborando en la transición energética hacia energías limpias, y enfatizando el desarrollo sustentable en el campo de la extracción de litio, específicamente en el Triángulo del Litio.",,,Av. 25 de Mayo 1021|San Martín|provincia de Buenos Aires,Buenos Aires,San Martín,,https://s3.amazonaws.com/cloud.kumu.io/accounts/262898/248108/496887cf-b596-422e-b795-abe4096bf554.png,https://www.linkedin.com/company/biometallum/,,,,,contact@bio-metallum.com,"-34.58179800811528, -58.52117216919893",https://bio-metallum.com/ES/,
Nanotica Agro,Empresa,Empresa,"En NANOTICA Agro desarrollamos una nueva tecnología de nanoencapsulación que permite disminuir la cantidad requerida de agroquímicos, a la vez que reducimos la contaminación y promovemos seguridad alimentaria.
El uso de nanotecnologías ayuda a mejorar la efectividad de los productos, pero sus altos costos y baja estabilidad son un factor limitante. Por esta razón proveemos a los productores una máquina nanotizadora y “cápsulas vacías” para nanoencapsular agroquímicos in situ al momento de la aplicación.
De esta manera se generan mayores ganancias para el productor agropecuario quien utiliza menor cantidad de producto, reduce sus costos e impacta positivamente en el medio ambiente.

Optimizamos la eficiencia de aplicación de agroquímicos - Nuestra tecnología potencia el efecto de los agroquímicos, aún a dosis menores a la recomendada. La partícula nanotizada penetra en mayor medida las células y tejidos vegetales que la partícula tradicional. Esto es posible debido a su tamaño nano y personalización de la e...",,,"Av. 25 de Mayo 1021, B1650 San Martín, Provincia de Buenos Aires",Buenos Aires,San Martín,,https://s3.amazonaws.com/cloud.kumu.io/accounts/261918/248108/f4b517e1-8fa5-4314-b9f6-a06330b3bf5a.png,,,,,,info@nanotica.com.ar,"-34.58175770649379, -58.52126470540207",http://nanotica.com.ar/,
Chemisa S.R.L.,Empresa,Empresas|Empresa,"CHEMISA - Química y Tecnología para Empresas : Fosfatizantes, Desengrasantes, Removedores, Anticorrosivos , Nanotecnología.
CHEMISA SRL, una empresa que es hoy líder en la fabricación de productos químicos para el tratamiento de superficies metálicas.
El primer ítem indicador de que CHEMISA SRL era diferente a lo conocido fue el desarrollo en el año 1999 de un fosfatizante y fosfodesengrasante para túneles de aspersión a temperatura ambiente, producto de rápida difusión en el mercado por el ahorro energético posible.
En el año 2001, inaugura su centro industrial, en el Parque Industrial La Cantábrica, donde reúne la planta de fabricación, las oficinas administrativas, y especialmente sus laboratorios de control y desarrollo.
En el año 2003 comienza la fabricación y exportación de cámaras de niebla salina, conscientes que no se puede hablar de resistencia a la corrosión sin tener los elementos necesarios para controlar en el laboratorio, el avance de la misma.
También, y como fruto de sus investigaciones de...","- Desinfección y limpieza: productos de limpieza y desinfección industrial.
- Belleza automotor: línea completa para estética automotor.
- Aluminio Anodizado: línea de productos para anodizado Aluminio.
- Aluminio pintado: línea de pretratamientos para aluminio previo a pintura.
- Metales ferrosos
- Metales no ferrosos: desengrasante electrolítico, desengrasante alcalino suave.
- Pavonado: decapante, desengrasante alcalino pesado, sal de pavonar, inhibidor de corrosión, inhibidor de corrosión soluble en agua, desplazante de agua, aceite de alta adherencia.
- Conformado de metales: decapante, desengrasante alcalino pesado, fosfato de Cinc grano medio/grueso, lubricante reactivo, inhibidor de corrosión, inhibidor de corrosión soluble en agua, desplazante de agua, aceite de alta adherencia, aceite de extrema presión.
- Removedores de pintura
- Lubricantes industriales
- Especialidades químicas: convertidor de óxido, cobreado químico, anti-incrustante anti-corrosivo, biocida de amplio espectro, consumible pa...",,"Tres Arroyos 329, Haedo, Provincia de Buenos Aires.",Buenos Aires,Haedo,,https://s3.amazonaws.com/cloud.kumu.io/accounts/263368/248108/56a4608a-f5b7-40e1-ab3a-37a21c38e12f.png,,,,,+54 11-4628-2929,chemisa@chemisa.com.ar,"-34.64187836448555, -58.60837261006061",www.chemisa.com.ar,
SphereBio,Empresa,,"Desarrollamos plataformas biotecnológicas que entregan moléculas a las células de manera eficiente, entrenándolas para generar respuestas específicas frente a problemas de salud complejos.

Actualmente, estamos utilizando nuestras plataformas para ofrecer a empresas farmacéuticas y veterinarias un enfoque novedoso para potenciar vacunas y terapias personalizadas para enfermedades infecciosas y cancer.",,,Av. Corrientes 485|ciudad de Buenos Aires,CABA,CABA,,https://s3.amazonaws.com/cloud.kumu.io/accounts/262898/248108/d559d6dc-68e0-4f84-87a5-7241116a6d03.jpg,,,,,,,"-34.60296228193412, -58.373482357638856",,
Advance Machine Systems S.A.,Empresa,Empresas|Empresa,"Advanced Machine Systems S.A. es una empresa innovadora que acerca al mercado argentino la última tecnología internacional, a través de marcas líderes en:
► Máquinas de medir
► Instrumentos de medición
► Impresión 3D
► Equipos de preseteado y balanceo
► Tornos y centros de entrenamiento industrial
► Tracker óptico
► Accesorios de metrología
► Equipos de pulido
AMS ofrece servicios completos de post venta en Argentina.",,,"Casa Central: Av. de Los Constituyentes 4537, (C1431EXK) CABA – Buenos Aires – Argentina",CABA,CABA,,https://s3.amazonaws.com/cloud.kumu.io/accounts/263368/248108/db447b6f-aeed-4d27-ad5a-570f930b473e.png,,,,"- Capacitación
- Mantenimiento preventivo
- Calibración de equipos y repuestos
- Distribuidores y servicios
- Seminarios web de impresión 3D",(54 11) 4571-9875,,"Av. de Los Constituyentes 4537, (C1431EXK) CABA – Buenos Aires – Argentina",https://www.amsarg.com.ar/,
Enorza S.A.,Empresa,Empresas|Empresa,"Enorza S.A. es una empresa emergente argentina de base tecnológica orientada la provisión de principios farmacéuticos activos (API ́s) y de sistemas de liberación controlada de drogas, bajo normas internacionales de alta calidad. Fundada en el año 2010. Ubicada en la Ciudad Autónoma de Buenos Aires.
Cuenta con un equipo de profesionales universitarios altamente calificados y entrenados en producción de farmoquímicos y productos farmacéuticos. También posee RRHH con una gran experiencia en investigación y desarrollo con especialización en tecnologías de liberación controlada y nanotecnología.
ENORZA está especializada en el desarrollo de procesos, cambios de escala cumpliendo Buenas Prácticas de Fabricación y la elaboración por contrato de ingredientes farmacéuticos activos (API) para ensayos y uso comercial. Posee experiencia en una amplia gama de productos de la química orgánica moderna, la manipulación de compuestos de alta potencia, tales como sustancias controladas, citotóxicos, intermediarios y anest...","En la convicción que el crecimiento se sustenta en su capacidad de innovación e investigación y desarrollo, ENORZA tiene los siguientes proyectos:

- ORPHANDRUGS:
Moléculas de alto valor agregado para mucosas y enfermedades huérfanas (ORPHANDRUGS).

- VERTEPORFINA:
Liposoma de Verteporfina para terapia fotodinámica eficaces en el tratamiento de la degeneración macular relacionada con la edad y el cáncer.

- MICROESFERAS:
Microesferas y nanopartículas de polímeros biodegradables donde el principio activo se encuentra distribuido uniformemente en una matriz polimérica. Con esta plataforma tecnológica y de acuerdo a las propiedades fisicoquímicas del polímero, la interacción del mismo con la droga y las variables del proceso de obtención de las partículas se logran distintas velocidades de liberación.
Así se pueden encapsular una amplia variedad de moléculas tanto hidrofílicas como hidrofóbicas.

- MICROESFERAS POROSAS:
Microesferas porosas capaces de entrampar distintos principios activos que se usan p...",,"Pringles 10 4°Piso ""I"", (1183) Ciudad Autónoma de Buenos Aires, Argentina.",CABA,CABA,,https://s3.amazonaws.com/cloud.kumu.io/accounts/263368/248108/63ef31cf-358b-4753-bab6-2a19de03de32.png,,,,,(+54 11) 4982-1507 / (+54 11) 4958-8106,info@enorza.com.ar,"Pringles 10 4°Piso ""I"", (1183) Ciudad Autónoma de Buenos Aires, Argentina.",www.enorza.com.ar,
Laring S.A.,Empresa,Empresas|Empresa,"Laring es una empresa de raíz electroquímica. Desde sus inicios, su principal objetivo fue el de llevar la avanzada en la investigación, el desarrollo, y la puesta en marcha de nuevas tecnologías para el tratamiento de superficies; manifestando una marcada vocación de para el desarrollo de la industria nacional.
La innovación tecnológica, la responsabilidad social, la sustentabilidad ambiental y un decidido compromiso en búsqueda de la excelencia para la implementación de sus procesos son las premisas que nos guían.
Nuestros productos y servicios se ajustan a las normativas internacionales de calidad y cuidado responsable del medioambiente.","INDUSTRIAS:
- Automotriz
- Metalúrgica
- Siderúrgica
- Oil & Gas
- Química
- Aeroespacial
- Marítima
- Recubrimientos
- Construcción
- Envases
PRODUCTOS:
- Pretratamientos
- Galvanotecnia
- Anodizados
- Pinturas
- Refrigerantes
- Sellantes
- Equipos
- Materias Primas",,Zuviria 5381 - (C1439BDU) Ciudad Autónoma de Buenos Aires - Argentina,CABA,CABA,,https://s3.amazonaws.com/cloud.kumu.io/accounts/263368/248108/26052618-4642-42f3-9b92-f53247cb5ef0.png,,,,,(54 11) 4638 7900,ventas@laring.com,Zuviria 5381 - (C1439BDU) Ciudad Autónoma de Buenos Aires - Argentina,www.laring.com,
Rust-Oleum,Empresa,Empresas|Empresa,"Rust-Oleum es un fabricante de pinturas y revestimientos protectores para uso doméstico e industrial.
Su propósito es crear valor para sus clientes y consumidores a través de una comprensión profunda de sus necesidades brindándoles la mejor solución mediante su “House of Brands” llena de productos y servicios que se destacan por su calidad superior e innovación permanente.
Ofrecen a sus consumidores un mix de productos únicos, premium y de calidad que simplifican la tarea y optimizan el tiempo de sus proyectos.",,,"Av. Sucre 1918 1° Piso, San Isidro, Buenos Aires, Argentina",Buenos Aires,San Isidro,,https://s3.amazonaws.com/cloud.kumu.io/accounts/263368/248108/40b16889-413c-4a1a-9a35-1bf4acc516ca.png,,,,"- Pinturas para pequeños proyectos: línea de pinturas con todo tipo de acabados para sus pequeños proyectos.

- Cuidados de la madera: redescubre la belleza de la madera. Soluciones para maderas de interior y exterior.

- Imprimantes y especialidades: productos para preparación de superficies, terminaciones y anti humedad y moho.

- Artesanía y hobby: pinturas de alta calidad y fáciles de usar para todos sus pasatiempos favoritos.

- Automotriz: mantenimiento, reparación y personalización de automóviles, motocicletas y otros vehículos.",,atencionalcliente@rustoleum.com,"Av. Sucre 1918 1° Piso, San Isidro, Buenos Aires, Argentina",www.rustoleumla.com,
Beneficial Germs SA,Empresa,,,,,Ruta Provincial N° 24 6502|Moreno|provincia de Buenos Aires,Buenos Aires,Moreno,,https://s3.amazonaws.com/cloud.kumu.io/accounts/262898/248108/814f4e61-2053-4479-8ecb-96f8a544eef1.jpg,,,,,,,"-34.533810199905716, -58.835681063588105",,
Inmunova,Empresa,Ecosistema FAN|Empresas|Empresa|Incubadora,"Inmunova es una compañía biotecnológica argentina especializada en la investigación, diseño y desarrollo de una nueva generación de medicamentos innovadores, destinados a brindar respuestas terapéuticas a enfermedades poco frecuentes y para las que aún no existe ningún tratamiento disponible.

Nuestra plataforma tecnológica Inmuno MultiCarrier (IMC®) permite la presentación de múltiples antígenos y obtener una fuerte respuesta inmune, utilizándose para el diseño de vacunas recombinantes y anticuerpos terapéuticos.

Mediante ingeniería de proteínas, desarrollamos un medicamento innovador con el potencial de transformarse en el primer tratamiento en el mundo para evitar la progresión del síndrome urémico hemolítico (SUH), una enfermedad grave asociada a la ingesta de alimentos contaminados. En la actualidad se está evaluando en un estudio clínico de Fase II/III. Además, contamos con proyectos en investigación que incluyen un antisuero para el hantavirus, nuevas terapias de inmunomodulación en cáncer y desarr...","Síndrome Urémico Hemolítico

Junto al Instituto de Medicina Experimental –dependiente de la Academia Nacional de Medicina y el CONICET– desarrollamos un medicamento biológico innovador con potencial de transformarse en el primer tratamiento para bloquear la toxina Shiga (Stx) y evitar la progresión al SUH.
Teniendo en cuenta las ventajas de IMC® –la tecnología para la presentación de antígenos de Inmunova– y la capacidad potencial de la subunidad B de la toxina Shiga (StxB) para inducir anticuerpos que previenen la toxicidad de Stx, se diseñó un nuevo inmunógeno insertando StxB en la plataforma IMC®. La quimera resultante (IMC®-Stx) demostró una fuerte capacidad para inducir anticuerpos neutralizantes contra Stx en forma duradera. Basados en los excelentes resultados, Inmunova diseñó un producto innovador que puede convertirse en el primer medicamento disponible para prevenir el desarrollo de esta grave enfermedad.
Hantavirus

Capitalizando la experiencia con el medicamento biológico con potencial de evi...",,25 de mayo 1021 - (1650) San Martín - Buenos Aires - Argentina,Buenos Aires,San Martín,,https://s3.amazonaws.com/cloud.kumu.io/accounts/261918/248108/d7025484-37c9-41da-896f-ddf9fe92d506.png,,,,,(54 11) 2033 1455 int 6185,info@inmunova.com,"-34.58179767985762, -58.52142725164978",http://inmunova.com/,
Apolo Biotech,Empresa,,"En APOLO Biotech desarrollamos tecnologías basadas en ARN, un enfoque excepcional libre de OGM que ofrece soluciones versátiles para impulsar la productividad al tiempo que conservamos y aprovechamos la amplia variedad de variedades locales.

A lo largo de los años, el control y manejo de las enfermedades de los cultivos se ha basado en gran medida en la aplicación de una amplia diversidad de pesticidas sintéticos, incluidos insecticidas, fungicidas y herbicidas; a pesar de los daños ambientales y de salud causados ​​por el uso extensivo y la exposición a estas sustancias químicas, como el resurgimiento de la población de plagas, el desarrollo de resistencia, organismos no objetivo y, por supuesto, riesgos potenciales para la salud de los agricultores, las poblaciones rurales y los consumidores. Por lo tanto, se necesita con urgencia el diseño de soluciones novedosas, sostenibles y ecológicas para la mejora de cultivos y el control de plagas.",,,Parque Tecnológico Litoral Centro|Santa Fe Capital|provincia de Santa Fe,Santa Fe,Santa Fe,,https://s3.amazonaws.com/cloud.kumu.io/accounts/262898/248108/c5964ee8-48f2-4246-92ba-a81eb47b07de.jpg,,,,,,,"-31.638676953571075, -60.667827842390984",,
Gisens Biotech,Empresa,Ecosistema FAN|Empresas|Empresa|Incubadora,"Nanotecnología aplicada a la ciencia médica
Hemos encontrado una forma de aprovechar el poder de la nanotecnología para llevar los diagnósticos portátiles al próximo siglo.
Equipo de desarrollo de alta calidad y vanguardia
Somos un equipo interdisciplinario, proactivo y creativo con un “know-how” de vanguardia en bioelectrónica.
Nuestra misión es dar forma al futuro revolucionando el campo de la medicina personalizada y los diagnósticos portátiles, impulsados ​​por la nanotecnología.","Biosensores
El módulo de detección es el corazón de nuestro dispositivo: la tecnología de vanguardia en estos biosensores los convierte en algunos de los más avanzados del mundo. Tienen una sensibilidad increíblemente alta, a un costo menor que los sensores actuales, y no requieren reactivos químicos ni calibración.
Módulo
El módulo de medición es el cerebro de nuestro dispositivo: este módulo tiene el tamaño de un teléfono inteligente, y será donde se inserte el sensor para la lectura de la señal.La tecnología multiprocesador permite un tiempo de respuesta extraordinariamente bajo, transfiriendo los resultados vía bluetooth en menos de 2 minutos.
App
La aplicación está diseñada para mostrar en un formato digital amigable, los resultados capturados por el biosensor y el lector electrónico. La aplicación también recopilará y almacenará datos anteriores, además de permitir la creación de informes detallados y gráficos para mostrar tendencias y variabilidad de resultados.",,Av. Corrientes 4547 2G|CABA|Argentina,CABA,CABA,,https://s3.amazonaws.com/cloud.kumu.io/accounts/263368/248108/1f94cb3b-865c-47ff-a1ce-0150f7496ea8.png,,,,,+54 9 11 3116- 5740,,Av. Corrientes 4547 2G CABA Argentina,www.gisensbiotech.com,
Nanocellu-ar,Empresa,,"Es una empresa de base científico - tecnológica, dedicada a la producción y comercialización de celulosa bacteriana con aplicaciones en medicina, cosmética, extracción de petróleo, alimentos, membranas acústicas y envases, entre otras.

Desde el año 2016, este emprendimiento utiliza las instalaciones de la compañía West Lubricantes S.A., ubicadas en el Parque Industrial La Cantábrica (Morón, provincia de Buenos Aires), para la fabricación y puesta a punto de su producto, que ha sido posible gracias a la participación de investigadores del Instituto de Tecnología en Polímeros y Nanotecnología (ITPN - CONICET - UBA).",,,Tres Arroyos 329|Haedo|Provincia de Buenos Aires,Buenos Aires,Haedo,,https://s3.amazonaws.com/cloud.kumu.io/accounts/262898/663353/5691aa80-a720-49a7-b9b5-4b0ce6429090.jpg,,"**Nanocelulosa bacteriana**: la celulosa bacteriana está compuesta por fibras de ancho nanométrico y longitud micrométrica constituyendo una red tridimensional con características que la hacen un material atractivo para numerosas aplicaciones.

Entre sus características, podemos citar fundamentalmente la alta pureza química, así como su origen natural y renovable, biodegradabilidad y biocompatibilidad, alta relación superficie/volumen, alta resistencia y rigidez, alta resistencia térmica (≈ 230ºC) y alto grado de comformabilidad, bajo coeficiente de expansión térmica y baja densidad.",,,11 4483 0240,teresagonella@westlubricantes.com.ar,"-34.64313176624532, -58.605121773010886",http://nanocelluar.com.ar/,
Plamic Biotech S.A.,Empresa,,"PLAMIC utiliza microfluidos para desarrollar y producir nanomedicinas, superando las importantes limitaciones de los métodos tradicionales. Nuestra tecnología utiliza microcanales que están diseñados lo suficientemente pequeños como para obtener un número de Reynolds bajo para los fluidos que contienen. Esto da como resultado un régimen laminar que permite un control preciso del movimiento del fluido en un chip que cabe en la palma de la mano.

Con la experiencia que tiene el equipo de PLAMIC tanto en microfluidos como en nanomedicinas, podemos obtener chips para formulaciones de nanomedicinas únicas. PLAMIC ha logrado conseguir nanomedicamentos reproducibles con calidad farmacéutica y, al mismo tiempo, accesibilidad para escalar su proceso de producción para satisfacer las demandas industriales.

Creemos que lograremos un avance histórico en la eficiencia y capacidad de la industria farmacéutica para desarrollar y producir nuevos productos. Estamos aquí para obtener más y mejores tratamientos para los pa...",,,Cabildo 480|General Pacheco|provincia de Buenos Aires,Buenos Aires,General Pacheco,,https://s3.amazonaws.com/cloud.kumu.io/accounts/262898/248108/0fd783cf-fcc5-4cf9-b48f-036c37600a4c.jpeg,,,,,,,"-34.461663706155306, -58.62485176196741",,
Zev Biotech,Empresa,Ecosistema FAN|Empresas|Empresa|Incubadora,"ZEV Biotech es una empresa Argentina de base científica que desarrolló una Plataforma Genómica para el diagnóstico molecular.
Empresa biotecnológica enfocada en el estudio del ADN con fines de diagnóstico clínico. En sus laboratorios instalados en el Espacio FAN de la Fundación Argentina de Nanotecnología, desarrolló la plataforma IRIS, destinada a cumplir con las necesidades propias de nuestro sistema de salud: fácil implementación, insumos más económicos y permite trabajar con cantidades reducidas de muestras.
Su misión es desarrollar, producir y comercializar kits de diagnóstico molecular para laboratorios de análisis clínicos, hospitales, clínicas y centros de salud tanto públicos como privados de países emergentes.
Mediante el diagnóstico molecular hoy es posible predecir, diagnosticar y/o evaluar el tratamiento de enfermedades con mayor grado de certeza, de forma más rápida y personalizada. Por este motivo, el diagnóstico molecular es una práctica cada vez más utilizada tanto en el campo de la salud ...",,,Av. 25 de Mayo 1021|Villa Lynch|Provincia de Buenos Aires,Buenos Aires,Villa Lynch,,https://s3.amazonaws.com/cloud.kumu.io/accounts/261918/248108/1a4e0ced-7637-44bc-841d-9628bfbca392.jpg,,,,,,,"-34.58163348904432, -58.5213176790256",,
Adaltium,Empresa,Empresas|Empresa,"Adaltium produce insumos funcionales para recubrimientos.

Valor agregado a la función decorativa o de protección, en la forma de cargas o aditivos nano-estructurados, aportan capacidad bactericida, anticorrosiva, superhidrofóbicos, electroconductivos, antirreflejo, entre otros.
Es una empresa de innovación tecnológica en la producción de insumos para la industria de pinturas, adhesivos y tintas. Trabaja en equipo con y para sus clientes. Invierten en investigación y desarrollo,
Agregan valor con RRHH argentinos, producen cuidando el medio ambiente, con calidad y trazabilidad.","Contamos con dos áreas generales, una orientada a **nano recubrimientos** como es el caso de *NanoCoating BK*, que son cargas minerales recubiertas con nano Plata y nano Cobre. Estos productos se orientan a recubrimientos funcionales, principalmente con acción biocida en general, bactericida, fungicida, alguicida.

Luego tenemos el área de **nano partículas** para usos industriales en forma directa como tales, con aplicación en saneamiento ambiental, descontaminación y aditivos especiales para industria de la construcción y la petrolera.",,"Aristóbulo del Valle 229 (C1160ADE), CABA, Argentina.",CABA,CABA,,https://s3.amazonaws.com/cloud.kumu.io/accounts/261918/248108/b0a80942-3c86-433b-b1ae-a6746ab5a816.png,,"**CARGAS BACTERICIDAS NANO-RECUBIERTAS**

Presentamos un nuevo concepto en cargas bactericidas para pinturas al látex, NanoCoating BK (bacteria killer). Se trata de carbonato de calcio nano-recubierto, un avance logrado mediante nanotecnología. El proceso de elaboración aplica una fina capa protectora contra bacterias.
El nano-recubrimiento de carbonato de calcio brinda a la pintura la capacidad de eliminar las bacterias y microbios, tanto mientras se encuentra en la lata como una vez aplicada, efecto que permanece en la superficie durante su vida útil. Evita la transferencia de enfermedades y su contagio a través del contacto repetido con la superficie pintada.
El producto es elaborado con tecnología INTI (*), ha sido probado con éxito en el Hospital del Tórax Dr. Antonio Cetrángolo en Florida. El proceso de fabricación permite una distribución homogénea del nano-recubrimiento en la carga. Éste no se degrada una vez aplicada la pintura y no es tóxico para el ser humano.
El proceso de modificación del carb...",,,,info@adaltium.com,"Aristóbulo del Valle 229 (C1160ADE), CABA, Argentina.",www.adaltium.com,
NanoInGreen,Empresa,,"NanoInGreen es una empresa de síntesis verde que, a través de la fermentación de precisión, busca sintetizar nanonutrientes funcionales para productos de origen vegetal, con el fin de mejorar la calidad de la nutrición, ayudando a crear alimentos deliciosos y saludables.

Nuestro producto son minerales de tamaño nanométrico como el hierro, el zinc o el selenio. Las principales características de éstos es que son producidos por bacterias lácticas probióticas a través de un proceso de fermentación de precisión donde estas bacterias aportan diferentes ventajas únicas como: rápida absorción, alta biodisponibilidad, alta solubilidad, ecológicos y no tóxicos para el consumo.",,,Av. 32 538|La Plata|provincia de Buenos Aires,Buenos Aires,La Plata,,https://s3.amazonaws.com/cloud.kumu.io/accounts/262898/248108/83caffc3-2424-47aa-ac13-b72c8ae08081.png,https://www.linkedin.com/company/nanoingreen,,,,,,"-34.89937621112205, -57.96741572204049",,
Nanomix S.A.,Empresa,,"Somos una empresa Argentina que forma parte de la siguiente generación en ciencia, tecnología e innovación. Estamos comprometidos y dedicados a desarrollar productos agrícolas para un mundo más eficiente en cuanto a consumo de recursos y energía.

Basados en la afirmación de “cuanto mas pequeña es la partícula, mas rápida es la asimilación del nutriente por la planta” desarrollamos una formulación combinada con un proceso para producir suspensiones minerales de alta pureza y calidad en tamaños ultrafinos.

Aprovechando las propiedades únicas de los materiales en tamaño nanométricos: mayor cobertura en la superficie y superdifusion.",,,Caudillos Federales 1750|Villa María|provincia de Córdoba,Córdoba,Villa María,,https://s3.amazonaws.com/cloud.kumu.io/accounts/262898/248108/2d1af040-8c39-4839-81d0-4e154ab833f0.jpg,,,,,,,"-32.42355602497976, -63.21793558307036",https://www.nanomix.com.ar/index.php,
BIOL S.A.,Empresa,,"Somos una empresa nacional de capitales privados fundada en el año 1908 dedicada a la elaboración y comercialización de productos farmacéuticos. Desde nuestros orígenes nos hemos especializado en la elaboración de inyectables, semisólidos y productos biológicos.

Nuestro objetivo principal es contribuir a mejorar la calidad de vida de las personas brindando medicamentos eficaces y accesibles.",,,Dr. Dessy 351|Florencio Varela|provincia de Buenos Aires,Buenos Aires,Florencio Varela,,https://s3.amazonaws.com/cloud.kumu.io/accounts/262898/248108/b41cc117-94e8-4365-bf6b-c244cfdcf432.jpeg,,,,,,,"-34.8240774321823, -58.280905247868816",,
HMA 4 S.A.,Empresa,,Desde 1992 venimos desarrollando insumos de origen natural orientados a dar solución a los distintos problemas de nutrición y sanidad animal y vegetal mediante una mejor relación costo-beneficio.,,,Vito D. Sabia 3752|Lomas del Mirador|Provincia de Buenos Aires,Buenos Aires,Lomas del Mirador,,https://s3.amazonaws.com/cloud.kumu.io/accounts/262898/248108/c155fd1e-8929-47cc-b137-c6d614890638.png,,,,,,,"-34.66642534193155, -58.51422190227774",,
Bioseek S.R.L.,Empresa,,,,,Ruta Nacional N° 9|Km 280|Alvear|provincia de Santa Fe,Santa Fe,Alvear,,https://s3.amazonaws.com/cloud.kumu.io/accounts/262898/248108/114782dd-152f-4ac6-afde-e5457cfb2d27.png,,,,,,,"-33.07088895852551, -60.645720159308866",,
Oncoliq,Empresa,,"Somos una startup que está desarrollando un método de cribado para la detección precoz del cáncer basado en una biopsia líquida a partir de una pequeña muestra de sangre.

Nuestra tecnología se basa en la detección de microARN que se encuentran incrementados en la sangre de personas en estadios tempranos de desarrollo tumoral.

Para la identificación de estos biomarcadores estamos desarrollando un método de detección basado en biosensores moleculares ópticos. Este método de detección es escalable, de bajo costo, no tóxico y permitirá la detección de microARN en un laboratorio con equipo básico.",,,,,,,https://s3.amazonaws.com/cloud.kumu.io/accounts/262898/663353/f8081fb2-6abd-4cf7-bfc2-47e9bf678887.jpg,https://www.linkedin.com/company/oncoliq/,"**Test Oncoliq** es un kit de detección temprana para cánceres de mama y próstata; es un tipo de biopsia líquida que permite detectar precozmente el desarrollo de los tumores.

El kit Oncoliq permite analizar los MicroARN que están dentro de las células tumorales y en los fluidos como la sangre. Al tomarle una muestra de sangre a un persona, el kit permite hacer una detección temprana de la enfermedad.",,,,,"-34.596785503647276, -58.37718531657202",,
ARO S.A.,Empresa,Empresas|Empresa,"La empresa ARO S.A. brinda soluciones avanzadas a las necesidades presentes en el ámbito de la Ciencia, Técnica y Aseguramiento de la Calidad.

Proveen equipos y sistemas aplicados a la metrología dimensional, medición analí­tica, adquisición y procesamiento de datos, ensayos físicos y quí­micos para el control general e investigación de materiales.

- Soluciones para cada necesidad
- El mejor soporte técnico
- Atención comercial personalizada
- Asesoramiento técnico a su servicio",,,"Av. Belgrano 369 (C1092AAD), Buenos Aires, Argentina.",CABA,CABA,,https://s3.amazonaws.com/cloud.kumu.io/accounts/261918/663353/a4ac183f-0c89-4ae9-b95c-28e7778c1dfa.jpg,,,,"Ofrecen una amplia gama de Servicios para la Producción y el Control de la calidad.
- Puesta en marcha, capacitación y entrenamiento:
Se efectúa en todo el equipamiento que comercializamos (metrología, ensayos destructivos y no destructivos, etc.) garantizando el start up y la capacitación de los operadores para el correcto uso de los mismos. Emitimos Certificado de Capacitación.
- Reparaciones en nuestras instalaciones in situ:
Contamos con instrumental Certificado de última Generación para todo tipo de reparaciones de los equipos que comercializamos, y stock de repuestos originales garantizando las intervenciones.
Verificación y calibración: Equipos de Ultrasonido y Phased Array / Proyectores de Perfiles / Microscopios / Máquinas Universales de Ensayo de hasta 100Tn / Densímetros Nucleares.
- Mantenimiento predictivo en Espectrometría:
Este Servicio garantiza la duración y prestación del equipamiento. Se implementa un plan de acción in situ (cliente) que incluye revisión, verificación preventiva y cap...",+54 11 4331 4503 / +54 11 4331 3572,info@aroline.com.ar,"-34.612124632998565, -58.3714666452798",www.arowebsite.com,
Abalone Bio,Empresa,Empresa,"Es una compañía farmacéutica dedicada a la investigación y el desarrollo de **medicamentos** a base de **anticuerpos terapéuticos** para enfermedades inflamatorias, renales y distintos tipos de cánceres.

Esta empresa, utiliza la tecnología de sensores microbianos para aislar y desarrollar macromoléculas capaces de unirse y modificar específicamente a receptores presentes en células humanas, con el fin de lograr la cura de distintas enfermedades complejas.

Actualmente, está trabajando en un proyecto para desarrollar macromoléculas terapéuticas capaces de unirse a receptores celulares acoplados a la proteína G en células inmunes, con el objetivo de detectar y atacar zonas tumorales.

A su vez, se encuentra desarrollando una biblioteca de anticuerpos de dominio simple o **nanoanticuerpos** (nanobodies), por su particular tamaño a escala nanométrica. El hallazgo de nanoanticuerpos que pudieran activar receptores de interés es actualmente una de las metas principales de la empresa.

Los anticuerpos terapéuti...",Medicina y desarrollos farmacéuticos,,25 de Mayo 1021 Villa Lynch|San Martín|Buenos Aires,Buenos Aires,Villa Lynch,,https://s3.amazonaws.com/cloud.kumu.io/accounts/262898/663353/c51cae30-ebd8-40ff-87c9-de1a4bb01ed8.png,,"**Medicamentos** a base de anticuerpos terapéuticos para enfermedades inflamatorias, renales y distintos tipos de cánceres.|La plataforma **Functional Antibody Selection Technology (FAST)** es una herramienta para el monitoreo del funcionamiento de miles de anticuerpos a la vez.",,"Investigación y desarrollo de anticuerpos, fundamentalmente aquellos capaces de unirse a receptores celulares acoplados a la proteína G en células inmunes, con el objetivo de detectar y atacar zonas tumorales.",,info@abalonebio.com,"-34.581764331419215, -58.52100788391072",https://www.abalonebio.com/,
Woxa,Empresa,Empresa,"Somos una empresa, recientemente instalada en el Espacio de Innovación de la FAN, que ofrece **servicios de fabricación** a pymes, emprendedores y grupos de investigación que dispongan de desarrollos en etapa de prototipado en el **área biomédica**, con el objetivo de facilitar su llegada al mercado.

Para alojar a estos emprendimientos, contamos en nuestra planta de 84 m2 con dos salas de producción, una de depósito, una de control de calidad, otra de preparación de materiales y un espacio de acondicionamiento o envasado.

Nuestros procedimientos basados en buenas prácticas y la experiencia en desarrollo, validaciones, control de calidad y fabricación, le permitirá a los emprendedores y/o grupos de investigación en biomedicina o diagnóstico llegar más rápido y a menor costo con su producto al mercado.","bio y nanotecnología, biomedicina, diagnóstico",,25 de Mayo 1021 Villa Lynch|San Martín|Buenos Aires,Buenos Aires,Villa Lynch,,https://s3.amazonaws.com/cloud.kumu.io/accounts/262898/663353/a823a2e6-fde2-4653-9114-37dffc153379.jpg,,"En proceso de producir **hisopos nasofaríngeos** para test de diagnóstico, por medio de impresión 3D estereolitográfica, en asociación con la empresa Mirai 3D.",,"Servicios de desarrollo y fabricación de dispositivos médicos y productos para diagnóstico in vitro (IVD) a emprendedores, grupos de investigación y pymes en tecnología médica.",0221 - 15 613 5529,ezetab@gmail.com,"-34.581933818915054, -58.52100184894095",,
Enlace Molecular,Empresa,Ecosistema FAN|Empresa,"Somos una empresa que desarrolla **software** para la **gestión integral de datos** en la **industria farmacéutica**, con el objetivo de brindar soluciones informáticas que permitan digitalizar las tareas de **control de calidad** y **registro de operaciones de manufactura** en los **laboratorios** encargados de la producción de medicamentos y productos médicos.

Específicamente, desarrollamos **aplicaciones para entornos GxP**, empleables en el **monitoreo ambiental** y **análisis de aguas y gases** de **uso farmacéutico**. Contamos también con herramientas digitales para el registro de aspectos productivos y el control de calidad de productos biológicos, la validación de técnicas analíticas, ensayos de estabilidad de medicamentos de uso humano y validaciones de limpieza.

Contamos con una amplia experiencia ofreciendo soluciones a entornos que trabajan bajo normas ISO,GMP y GLP, entre otras y todos nuestros productos y desarrollos siguen los lineamientos de CFR 21 parte 11 e ISPE-GAMP5. Al mismo tiempo...","Software, Control de Calidad, Registro de Operaciones, Medicamentos, Productos Médicos",,25 de Mayo 1021 Villa Lynch|San Martín|Provincia de Buenos Aires,Buenos Aires,Villa Lynch,,https://s3.amazonaws.com/cloud.kumu.io/accounts/261918/248108/7fabe65a-7333-4270-a45d-ca6a31d0430f.png,https://www.linkedin.com/company/enlacemolecular/,"**SIMMA Ambiente®** es un software que permite la configuración completa de los procedimientos internos de monitoreo de aire, superficies, personal, equipos y gases en laboratorios de producción de medicamentos y productos médicos. Es una herramienta aplicable para la administración de tareas, datos y reportes de todas las actividades de monitoreo ambiental.|**SIMMA Aguas®** es un software que permite la configuración de todos los tipos de aguas de planta en laboratorios de producción de medicamentos y productos médicos: de red, pretatamiento, purificada, WFI tanto para parámetros microbiológicos como fisicoquímicos. Es una herramienta aplicable para la administración de tareas, datos y reportes de las actividades de análisis de aguas.|**emap®** es un software de gestión de abastecimiento y producción de productos farmacéuticos y médicos que permite el registro digital de todas las actividades en un laboratorio.",,"- Dasarrollo de software a medida para laboratorios según requerimientos específicos

- Servicios de consultoría para la mejora de procesos.

- Acceso al software como servicios (SaaS) a través de Hosting con calificación GxP (AWS).

- Soporte técnico y actualizaciones

- Capacitación integral",011 - 3677 6416,contacto@enlacemolecular.com.ar,"-34.54477158972914, -58.45309579292503",http://enlacemolecular.com.ar/,
Laboratorio de Hemoderivados - UNC,Empresa,,"Somos un Laboratorio Farmacéutico Público sin fines de lucro, perteneciente a la Universidad Nacional de Córdoba.

Nuestro rol social es clave en el sistema de salud del país y la región, mejoramos la accesibilidad de medicamentos estratégicos a toda la población, regulamos precios en el mercado y sustituimos importaciones de medicamentos de alto valor terapéutico.

Contamos con un modelo de gestión eficiente, transparente y sustentable de nuestros recursos, lo que nos permite autogestionarnos económica y financieramente en un 100%.",,,Av. Valparaíso s/n|Ciudad Universitaria|Córdoba Capital,Córdoba,Córdoba,,https://s3.amazonaws.com/cloud.kumu.io/accounts/262898/248108/635054e6-a4e0-4f33-9523-f39a6c63d447.png,,,,,,,"-31.439974273394213, -64.18639676850675",,
Tintte Argentina S.A.S.,Empresa,,,,,Urquiza 1220|Córdoba Capital|provincia de Córdoba,Córdoba,Córdoba,,,,,,,,,"-31.400241212817146, -64.18922508837066",,
Lipomize S.R.L.,Empresa,Empresas|Empresa,"Es una empresa especializada en el desarrollo de nano y micro trasportadores para la
industria farmacéutica, cosmética y el segmento nutracéutico.
Sus principales unidades de negocios son:
- Servicio de desarrollo y transferencia de formulaciones farmacéuticas.
- Desarrollo y fabricación de ingredientes dermo-cosméticos para la Industria
- Desarrollo y fabricación de suplementos dietarios bebibles

Localizada en el Parque Tecnológico del Litoral Centro, dentro del Predio CONICET en la
ciudad de Santa Fe, la empresa cuenta con laboratorio propio de I+D y con una Planta de
Producción donde se fabrican las formulaciones dermo-cosméticas y los productos
nutracéuticos, además de encontrarse estrechamente vinculada a los principales institutos
de CONICET y a la Universidad Nacional del Litoral.",,,"Ruta 168, Parque Tecnológico Litoral Centro - Santa Fe - Argentina",Santa Fe,Parque Tecnológico Litoral Centro,,https://s3.amazonaws.com/cloud.kumu.io/accounts/261918/248108/2ac89446-cebf-4755-aad2-a65c284424c1.jpg,,,,,"5,43425E+11",contacto@lipomize.store,"-31.63455088529189, -60.666927287719204",https://www.lipomize.store/,
Ecolysium,Empresa,,"Creamos una nueva generación de Bionsumos combinando biotecnología y nanotecnología con el fin de reducir el impacto de los agroquímicos.

Ecolysium es una startup de base tecnológica que busca crear soluciones biológicas para disminuir el uso de agroquímicos en la agricultura.

El grupo fundador combina experiencia en negocios, nanotecnología y microbiología para llevar soluciones innovadoras al mercado.

Nuestro objetivo es crear una nueva generación de bioinsumos que permitan revolucionar la agricultura y poder lograr una agricultura sostenible utilizando bacterias patagónicas y nanotecnología.",,,Ruta Nacional 259 Km 16.|Esquel|provincia de Chubut,Chubut,Esquel,,https://s3.amazonaws.com/cloud.kumu.io/accounts/262898/248108/59745ab8-d8c2-4dcb-ae60-7389d421132b.jpeg,,,,,,,"-42.93084873343389, -71.3637126193565",,
Diagramma S.A.,Empresa,,"DIAGRAMMA S.A es la primera compañía especializada en Latinoamérica que desarrolla y fabrica cultivos lácticos para la industria láctea y otros sectores de la alimentación. Estos microorganismos se emplean luego de la pasteurización de la leche y le dan al queso, yogurt y otros productos lácteos su textura, sabor y aroma específicos.

Además estos cultivos aceleran el proceso microbiológico, lo cual aumenta la productividad de los equipos y contrarresta el crecimiento de bacterias perjudiciales en los alimentos, prolongando su vida en la góndola.

La empresa también ha desarrollado cultivos para chacinados, los que mejoran el gusto de estos productos y reducen su tiempo de maduración. Recientemente se ha DIAGRAMMA S.A introducido en el sector de alimentación animal con un inoculante para ensilados Diasil, concentrado de bacterias que permite la rápida estabilización del silo.",,,Av. Las Baleares|Au Rosario - Sta Fe y|S3016 Santo Tomé|provincia de Santa Fe,Santa Fe,Santo Tomé,,https://s3.amazonaws.com/cloud.kumu.io/accounts/262898/248108/fa891bc8-3be6-40f4-9916-f6aff399228c.png,,,,,,,"-31.684675423791525, -60.80992661775116",,
Xerendip S.A.S.,Empresa,,"Desde Xerendip, bajo nuestro modelo, logramos que proyectos biotech y foodtech, en estadíos tempranos, se conviertan en startups globales líderes de su mercado.",,,Gorriti 182|Rosario|provincia de Santa Fe,Santa Fe,Rosario,,https://s3.amazonaws.com/cloud.kumu.io/accounts/262898/248108/679557b6-02d6-4013-a6e9-ba97a2c6cd71.jpeg,,,,,,,"-32.92231052170908, -60.66543799360924",,
MOLYSIL Argentina S.A.,Empresa,Empresas|Empresa,"Molysil Argentina S.A. tiene a su cargo -desde su constitución en el año 1971-todas las operaciones concernientes a los productos Molykote® en la República Argentina, atendiendo los mercados Industrial y Autoaftermarket. Molysil también ha actuado en estos mercados como Master distributor de siliconas Dow Corning® para los sectores productivos y de mantenimiento industrial. En 2014 se abrió la División Construcción, como Distribuidor Autorizado de las siliconas Dow Corning® para este mercado.
En junio de 2016, Dow y Dow Corning se unieron para combinar soluciones de silicona y orgánicas complementarias a sus desafíos de crecimiento. Como parte de esta integración, los productos MOLYKOTE ™mantienen su marca como uno de los líderes del segmento de lubricantes especiales y a partir de Febrero de 2018, y de forma gradual, los productos de silicona de marca Dow Corning pasarán a denominarse DOWSIL ™, como una marca propia de Dow. Los clientes pueden seguir confiando en las mismas características químicas y bene...","Molysil brinda soluciones para todo tipo de industria.

- Industria de electrodomésticos: se obtiene una aplicación integrada y con soporte de ingeniería junto con los productos y materiales de alta calidad. Si usted necesita una solución de sellado o de lubricación para una aplicación somos la respuesta.

- Aeroespacial y aviación: aquí el margen de error es muy estrecho. Por eso proporcionamos productos a base de silicio de alta calidad - de fluidos de alta pureza, grasas, selladores de silicona y adhesivos - para recubrimientos avanzados de protección, encapsulantes y materiales compuestos lubricantes que soportan tensiones y temperaturas extremas.

- Ensamble y mantenimiento: nuestra extensa línea de lubricantes especiales de alto rendimiento Molykote® le da opciones para satisfacer sus necesidades de lubricación industrial y hacer una correcta elección teniendo en cuenta carga, medio ambiente, temperatura y velocidad.

- Petróleo y gas: no importa su entorno - onshore, offshore o submarinos - desde l...",,Virrey Olaguer y Feliú 3398|C1426ECL Buenos Aires,CABA,CABA,,https://s3.amazonaws.com/cloud.kumu.io/accounts/263368/248108/74dc2eb2-b1bc-4da1-8bf8-198f1b892ed7.png,,,,,(011) 4584-5828/0702,info@molycentro.com.ar,"-34.57546822897851, -58.458645874116584",www.industria.molysil.com,
Y-TEC,Empresa,,"Somos la empresa argentina líder en la generación de tecnologías para la industria energética, la combinación inédita de la experiencia operativa de YPF y el histórico capital científico del CONICET.

Acercamos la capacidad y la creatividad de la ciencia a las necesidades de la industria. Contamos con el centro de investigación aplicada más grande del país, con 47 laboratorios, 12 plantas piloto y equipamiento único en Latinoamérica.

Nuestro mayor valor reside en un equipo altamente calificado, que trabaja de manera transversal y organizado en Programas Tecnológicos de investigación y desarrollo.",,,Av. del Petroleo Argentino 900-1198|Berisso|provincia de Buenos Aires,Buenos Aires,Berisso,,https://s3.amazonaws.com/cloud.kumu.io/accounts/262898/248108/3aaebae2-f21d-4f28-9577-fdd87363b23b.jpeg,,,,,,,"-34.89724733906951, -57.918507937696106",,
Chemval S.A.,Empresa,,"Productos Químicos para las necesidades de la industria, actividades humanas y entorno. Para Mantenimiento, procesos, y residuos. Asesoramiento. Higiene, aguas, efluentes. Estudio y diseño. Montaje de pymes. Investigación y Laboratorios. Tecnología y Soluciones. Toda actividad tiene sus necesidades.",,,Heguilor 292|Mar del Plata|provincia de Buenos Aires,Buenos Aires,Mar del Plata,,,,,,,,,"-38.00370221346232, -57.59641245710642",,
GIHON- Laboratorios Químicos S.R.L.,Empresa,Empresas|Empresa,"GIHON-Laboratorios Químicos SRL es una empresa Argentina fundada en 1991, especializada en la producción y desarrollo de compuestos químicos de síntesis orgánica compleja, organometálica e inorgánica (en el campo principalmente de los complejos de metales de transición). Nuestros productos tienen variadas aplicaciones en el campo farmoquímico, médico, veterinario y agroquímico, entre otros.","- Síntesis Química
- Thimerosal
- Farmoquímicos/APIs
- Micro y nanotecnología
- Naturales
- Tratamiento de aguas",,"Calle 4 y 5, Parque Industrial General Savio - Mar del Plata (7600) - Buenos Aires - Argentina",Buenos Aires,Mar del Plata,,https://s3.amazonaws.com/cloud.kumu.io/accounts/263368/248108/7e19b8be-c6dc-445c-9907-83d1f0a99708.png,,,,,(54 223) 464 2567/3610,info@gihonlab.com,"-38.000396093020406, -57.66609988932202",https://www.gihonlab.com/,
SYTE.bio S.R.L.,Empresa,,"Programamos las células de los pacientes para que produzcan sus propios tratamientos de una forma más segura, rápida y asequible, centrándose en las células y los tejidos correctos.",,,Cerrito 1186|Ciudad de Buenos Aires,CABA,CABA,,https://s3.amazonaws.com/cloud.kumu.io/accounts/262898/248108/a4ec23e0-56d1-4dc1-9e3c-acf5f9b97a4f.jpg,,,,,,,"-34.59443697204518, -58.3831886336662",,
Wiagro,Empresa,Empresa,"Somos una compañía, fundada por un grupo de especialistas en telecomunicaciones, electrónica y mecánica y recientemente incubada en el Espacio de Innovación de la Fundación Argentina de Nanotecnología, que desarrolla **tecnología IoT** para la **industria agrícola**.

Contamos con una plataforma de digitalización del sector de post cosecha que tiene como objetivo monitorear el estado de los granos desde cualquier lugar del mundo, las 24 horas del día.

Los principales desarrollos de Wiagro son, actualmente, Smart Silobag ®, para el control del almacenamiento de silobolsas; y Smart Barge ®, que controla el transporte de los mismos; estos dispositivos tienen el potencial de disminuir la pérdida de alimentos a nivel mundial y ya están siendo utilizados por pequeños y medianos productores, y también por grandes empresas del sector como Cargill, Molinos Agro y Control Union.

Nuestro equipo, compuesto por un grupo de profesionales con más de 20 años de experiencia en sectores de I+D de diversas compañías, desa...",Agroindustria y Alimentos,,Lima 717|Capital Federal,CABA,CABA,,https://s3.amazonaws.com/cloud.kumu.io/accounts/262898/663353/922d9532-6017-46c8-a6f2-ec6d272a4e54.png,,"**Smart Silobag ®**, para el control del almacenamiento de silobolsas.|**Smart Barge ®**, que controla el transporte de los mismos; estos dispositivos tienen el potencial de disminuir la pérdida de alimentos a nivel mundial.",,Servicios de seguimiento y control de calidad de la producción agropecuaria por medio de tecnología IoT.,011 7363 - 6432,info@wiagro.com,"-34.581921468168, -58.521155435768726",http://www.wiagro.com/home/,
Laboratorios Mervak S.R.L.,Empresa,,"Somos una empresa especializada en la elaboración, proceso y distribución de productos para uso en medicina veterinaria.

Con la misión de prestar el mejor servicio y elaborar los mejores productos para aportar soluciones terapéuticas a los médicos veterinarios y productores agropecuarios.",,,Autopista Rosario Buenos Aires Km. 280.5|Alvear|provincia de Santa Fe,Santa Fe,Alvear,,https://s3.amazonaws.com/cloud.kumu.io/accounts/262898/248108/89252e81-11e5-45ee-92ee-6de9f2e33416.jpeg,,,,,,,"-33.071978192156266, -60.64584477507462",,
Laboratorios Richmond S.A.C.I.F.,Empresa,,"Desarrollamos y producimos medicamentos en nuestras plantas de Argentina y Colombia con tecnología de última generación, actuando de forma responsable con nuestra sociedad y el medio ambiente en pos de la sustentabilidad. A través de nuestras subsidiarias y socios estratégicos nuestros productos llegan a 25 países.",,,Av. Elcano 4938|ciudad de Buenos Aires,CABA,CABA,,https://s3.amazonaws.com/cloud.kumu.io/accounts/262898/248108/2db1729a-4ac2-404c-acff-202b03829dd5.png,,,,,,,"-34.592007214509934, -58.46835117237109",,
Red Surcos,Empresa,Empresas|Empresa,"Red Surcos es la empresa de capitales nacionales líder en la fabricación y distribución de
fitosanitarios del mercado argentino: herbicidas, insecticidas, fungicidas, coadyuvantes, fertilizantes y fitorreguladores. Desde el año 2008 y gracias a un intenso trabajo en nanotecnología, Red Surcos ha logrado desarrollar no menos de 25 productos bajo la forma de microemulsiones con un tamaño de micela inferior a 100 nm. En el año 2016 fue galardonada con el Premio a la Excelencia Agropecuaria Banco Galicia - La Nación en la categoría Innovación gracias al desarrollo de formulaciones nanotecnológicas que permiten reducir sensiblemente la dosis de principio activo por hectárea y ser más inocuas para el medio ambiente y seguras para el operador. Red Surcos cuenta con 2 laboratorios de control de calidad y desarrollo, 2 plantas de producción, más de 40 centros de asesoramiento y venta en Argentina y filiales propias en Uruguay, Paraguay, Bolivia y Colombia.",,,Av. Gdor. Freyre 2363|Santa Fe Capital|provincia de Santa Fe,Santa Fe,Santa Fe,,https://s3.amazonaws.com/cloud.kumu.io/accounts/261918/248108/7dbf718e-7927-4fbb-b2dc-a3878e378a1e.png,,,,,"5,41144E+11",info@redsurcos.com,"-31.643955689416583, -60.71884298843677",www.redsurcos.com,
Argentum Texne,Empresa,Empresas|Empresa,"Argentum Texne es una Empresa de Base Tecnológica (EBT) dedica al diseño, desarrollo y fabricación de narices electrónicas para el control de calidad y vida útil de alimentos y productos cosméticos. Hacemos investigación y desarrollo de nanomateriales para sensores y separación de sólidos, líquidos y gases con aplicaciones en medio ambiente, salud y seguridad.",,,"Jose Maria Moreno 1657, CABA, Argentina. (C.P: 1437)",CABA,CABA,,https://s3.amazonaws.com/cloud.kumu.io/accounts/261918/248108/851d0a29-3c1b-46e7-9109-6a5c72b34532.jpg,,,,,,carlos.rinaldi@argentumtexne.com.ar,"Jose Maria Moreno 1657, CABA, Argentina. (C.P: 1437)",https://www.argentumtexne.com.ar/,
Dynami,Empresa,Empresa|Incubadora,"Dynami es una empresa de ingeniería y tecnología de baterías ultrafinas de servicio completo centrada en el cliente. Desarrollamos baterías ultradelgadas adaptadas al diseño de cada producto, principalmente, en dispositivos médicos, internet de las cosas y wearables technologies.",,,"425 Whittier St NW, Washington, DC 20012",,"Washington, DC",,https://s3.amazonaws.com/cloud.kumu.io/accounts/261918/248108/4e928051-8e70-4d60-87f9-a7886113881b.png,,,,,202-679-6683,info@dynami-battery.com,"-34.58183941387044, -58.52135254773984",http://dynami-battery.com/,
Magnolia Nanotech S.A.,Empresa,,,,,Blvd. 120 1459|La Plata|provincia de Buenos Aires,Buenos Aires,La Plata,,https://s3.amazonaws.com/cloud.kumu.io/accounts/262898/248108/f4f8be2e-0cd5-4a61-a81e-a001287f7918.jpeg,,,,,,,"-34.90979517372633, -57.925630124226494",,
Chemtest,Empresa,Ecosistema FAN|Empresas|Empresa|Incubadora,"Chemtest Argentina es una compañía fundada por un grupo de emprendedores científicos y empresarios argentinos dedicada al desarrollo, producción y comercialización de sistemas diagnósticos clásicos como ELISA y sistemas de diagnóstico rápido inmunocromatográficos en formato tiras reactivas para distintas enfermedades infecciosas de importancia médica y veterinaria.
Nuestra plataforma tecnológica combina bio y nanotecnología junto a la tecnología propietaria GlycoEng para producir test de alta performance diagnóstica muy simples de usar que otorgan resultados de precisión en corto tiempo.

Video institucional: https://www.youtube.com/watch?v=fZMBzlgvR78&feature=emb_logo",,,av 25 de mayo 1021,,,,https://s3.amazonaws.com/cloud.kumu.io/accounts/261918/248108/d8a0c376-6cfc-4dd6-8a66-4b8520bbd71d.jpg,,"**Diagnósticos salud humana**

-Diagnostico rápido de COVID-19 por amplificación isotérmica ELA-CHEMSTRIP
-Tiras reactivas para deteccion de anticuerpos contra COVID-19
-Tiras Reactivas para el diagnóstico rápido de Dengue
-Kits diagnóstico ELISA para brucelosis humana
-Kits diagnóstico ELISA para Mal de Chagas
-Kits diagnóstico ELISA para E.coli STEC causante de Sindrome Uremico Hemolitico
-Tiras Reactivas inmunocromatográficas para diagnóstico rápido de brucelosis
-Tiras Reactivas inmunocromatográficas para diagnóstico rápido de E. coli STEC

**Diagnósticos salud animal (Línea veterinaria)**

-Kits diagnóstico ELISA para brucelosis bovina, porcina, caprina y ovina
-Kits diagnóstico ELISA para brucelosis canina
-Tiras reactivas inmunocromatográficas para diagnóstico rápido de brucelosis canina",,,(54 11) 5353 6066,info@chemtest.net,"-34.58189351735941, -58.52124861214935",http://www.chemtest.net/,
INMEBA S.R.L.,Empresa,Empresas|Empresa,"INMEBA es una empresa Argentina establecida en 1975, radicada en la Ciudad de Córdoba, capital de la provincia homónima y estratégicamente ubicada en el centro de nuestro país.
INMEBA se dedica desde hace ya más de 25 años al diseño y fabricación de celdas robotizadas, dispositivos de ensamble y soldadura, dispositivos para la colocación de partes móviles, encolado de vidrios, calibres especiales de control, moldes, matrices y piezas especiales para las principales industrias metalmecánicas y automotrices del país y el mundo.
INMEBA está ubicada en un predio de 10.000 m2, sobre el cual sobresalen las 2 naves principales que forman nuestra planta productiva, con un total de 2.000 m2 cubiertos.

INMEBA ha logrado posicionarse entre las primeras opciones en el exigente y competitivo mercado de la industria automotriz, aeroespacial, ferroviaria, minera, nuclear, alimentaria y agropecuaria, sobre todo por la gran capacidad de respuesta a las necesidades de nuestros clientes, y por la excelente calidad en produ...","- Diseño y Fabricación:
Dentro de nuestra gama de servicios, contamos con equipos sofisticados para el diseño, fabricación y control de piezas.
Disponemos además de una capacidad productiva mensual de 4.000 hs. por turno de trabajo, a lo que debemos sumarle otras 500 hs. en ingeniería y proyectos.

- Gestión de Calidad:
Nuestra firma posee certificado del sistema de gestión de calidad ISO 9001-2008 emitido por Det Norske Veritas, además de contar con la certificación otorgada por Lockheed Martin Aircraft Arg. S.A. y FAdeA S.A. como proveedor para la industria aeronáutica de piezas y conjuntos mecanizados, calibres de control y medición, construcción de dispositivos, moldes, matrices y aeropartes.
Por otra parte, desde Enero de 2013 INMEBA está calificado por INVAP S.E. como proveedor de artículos que cumplen con los “Requerimientos de Calidad NIVEL A”, lo cual implica ser proveedor APTO para la fabricación de piezas que cumplen con los más altos estándares de calidad de INVAP, en cuanto a piezas aeronáut...",,"Homero 2100. B° Yofre Norte (X5012KDJ). Córdoba, Argentina.",Córdoba,Córdoba,,https://s3.amazonaws.com/cloud.kumu.io/accounts/263368/248108/eade79f7-7500-4c39-8e22-3e3236f78777.png,,,,"Productos:
● Celdas robotizadas
● Dispositivos de ensamble y soldadura
● Calibres especiales de control
● Dispositivos para la colocación de partes móviles
● Moldes y matrices
● Piezas especiales mecanizadas
● Aeropartes y aplicaciones para la industria aeronáutica, espacial y nuclear
Máquinas y Equipos:
● Centros de Mecanizado CNC con 5 ejes de trabajo
● Electroerosionadoras de corte por hilo y por penetración
● Tornos CNC
● Fresadoras CNC de gran porte
● Máquinas de medición por coordenadas de amplias dimensiones",+54 351 451 9066 / 452 0008,comercial@inmebasrl.com,"-31.384448964856784, -64.1370539319038",www.inmebasrl.com,
Bioadvance,Empresa,,"Desde 2013 prestamos soluciones médicas en Latinoamérica. Con sede operativa en Estados Unidos y filiales en México, Argentina, Bolivia y Chile ofrecemos productos de alta calidad, innovadores y clínicamente testeados.

El objetivo de Bioadvance es mejorar la atención médica y la calidad de vida de los pacientes mediante productos y servicios innovadores que cumplen con los requisitos del sistema sanitario. Nuestra Política de Calidad está orientada a garantizar la seguridad y la confiabilidad de cada uno de nuestros dispositivos, así como la excelencia en los servicios que proveemos a nuestros clientes.",,,Av. Dr. Ricardo Balbín 4238|ciudad de Buenos Aires,CABA,CABA,,https://s3.amazonaws.com/cloud.kumu.io/accounts/262898/248108/f4f3ab70-0fd6-46f0-bf39-4e19d946b936.png,,,,,,,"-34.55503651675335, -58.49171428476638",,
UnitecBlue,Empresa,Empresas|Empresa,"Unitec Blue es una empresa de tecnología de última generación ubicada en la ciudad de Chascomús a 120 km al sur de la Ciudad Autónoma de Buenos Aires.
Unitec Blue produce tarjetas inteligentes y diversas soluciones tecnológicas. La totalidad de los equipos han sido provistos por las principales empresas alemanas del mercado, por lo tanto, todos los procesos de fabricación y gestión cumplen con estándares internacionales de calidad y seguridad.
Nuestros clientes son operadoras telefónicas, entidades financieras y organismos públicos. Asimismo desarrollamos soluciones para empresas de transporte, logística, trazabilidad de medicamentos e industria agropecuaria.
Nuestros productos y servicios están diseñados para los siguientes negocios:
- GSM - Tarjetas SIM
- Bancos - Tarjetas bancarias EMV
- Laboratorios - Trazabilidad de medicamentos e insumos
- Transporte y Logística - Desarrollo de proyectos que adapten múltiples soluciones tecnológicas
- E-government - Documentos y aplicaciones ciudadanas","Trazabilidad:
Implementación de etiquetas inteligentes y tags de RFID para diferentes requerimientos:
- Trazabilidad de ganado y fármacos.
- Control inteligente del servicio de recolección de basura y limpieza de sumideros.
- Gestión documental.
- Gestión de activos.

Seguridad:
Implementamos proyectos para gestionar y proteger eficientemente la identidad de los ciudadanos, emitiendo documentos seguros y confiables, garantizando la acreditación única.

Documentos ID:
Soluciones integrales destinadas a la interacción de los ciudadanos con las dependencias del Estado (DNI/ Lic. de conducir/ tarjetas ciudadanas).

Servicios financieros:
Desarrollo de aplicativos para encriptar claves, mapping, formateo con perfil eléctrico y panel de firma personalizado. Estos servicios son de vital importancia para verificaciones y trámites presenciales como también on-line.

SmartCities:
Planificación y desarrollo integral de dispositivos y aplicaciones para ciudades inteligentes, diseñadas para mejorar y optimizar la ...",,"Honduras 5663, Ciudad Autónoma de Buenos Aires.",CABA,CABA,,https://s3.amazonaws.com/cloud.kumu.io/accounts/263368/248108/ef045955-a143-4a7c-b71e-336262697d49.jpg,,,,"Productos:
- EMV (Europay/Mastercard/Visa)
- Contactless
- INLAY (Prelaminados)
- Dual Interface
- Tarjetas SIM",+54 11 4899 6555,,"-35.54929535301973, -57.985425089419714",www.unitecblue.com.ar,
Coloid S.A.S.,Empresa,,,,,Av. Eva Perón 8936|Loma Hermosa|provincia de Buenos Aires,Buenos Aires,Loma Hermosa,,https://s3.amazonaws.com/cloud.kumu.io/accounts/262898/248108/f12c5b17-c0e0-442b-8e05-f0143533704d.jpeg,,,,,,,"-34.56285120084118, -58.599480408774035",,